,name,followers,degree_centrality,category,geodata,location,phone,email,webpage,twitter,description,Unnamed: 11,geoloc,point,latitude,longitude,altitude
0,acat france,19959,55.90756302521008,human rights democracy and governance,,7 rue georges lardennois 75019 paris france,  01 40 40 42 4301 40 40 42 43  , acat@acatfrance.fr  ,http://www.acatfrance.fr,,action des chrétiens pour l’abolition de la torture l’acat est une ong chrétienne de défens...,,"7, Rue Georges Lardennois, Quartier du Combat, Paris 19e Arrondissement, Paris, Île-de-France, France métropolitaine, 75019, France","(48.878173, 2.3758446, 0.0)",48.878173,2.3758446,0.0
1,acted,54085,151.49859943977592,humanitarian ,,33 rue godot de mauroy 75009 paris  france,  01 42 65 33 3301 42 65 33 33  , paris@acted.org ,http://www.acted.org/fr/,,acted est une ong française de solidarité internationale. deuxième ong française acted a pour vo...,,"33, Rue Godot de Mauroy, Quartier de la Chaussée-d'Antin, Paris 9e Arrondissement, Paris, Île-de-France, France métropolitaine, 75009, France","(48.8721554, 2.327303, 0.0)",48.8721554,2.327303,0.0
2,ader ried,197,0.5518207282913166,humanitarian ,,10 rue cambacérès 75008 paris france,  00 33 01 85 09 06 89 , info@ader-ried.org ,http://www.ader-ried.org,,l’ader-ried est une association de solidarité internationale qui résulte de la fusion entre ader ...,,"10, Rue Cambacérès, Quartier de la Madeleine, Paris 8e Arrondissement, Paris, Île-de-France, France métropolitaine, 75008, France","(48.8726689, 2.3180993, 0.0)",48.8726689,2.3180993,0.0
3,aide et action,25666,71.89355742296918,education,,53 boulevard de charonne 75545 paris france,  01 55 25 70 0001 55 25 70 00   , isabelle.boustouler@aide-et-action.org   ,http://www.france.aide-et-action.org/,,créée en 1981 aide et action est une association de solidarité internationale spécialiste de l’é...,,"53, Boulevard de Charonne, Quartier de Charonne, Paris 20e Arrondissement, Paris, Île-de-France, France métropolitaine, 75020, France","(48.8526445, 2.3970988, 0.0)",48.8526445,2.3970988,0.0
4,ainaworld aina,1344,3.764705882352941,human rights democracy and governance,,122 rue haxo  75019 paris france,  01 42 03 64 2401 42 03 64 24  , communication@ainaworld.org ,http://www.ainaworld.org,,fondée en 2001 par le photojournaliste reza l’ong aïna forme les populations aux métiers de l’in...,,"122, Rue Haxo, Quartier Saint-Fargeau, Paris 20e Arrondissement, Paris, Île-de-France, France métropolitaine, 75020, France","(48.8768408, 2.4022703, 0.0)",48.8768408,2.4022703,0.0
5,amnesty international,622279,1743.078431372549,human rights democracy and governance,,76 boulevard de la villette paris france,  01 53 38 65 6501 53 38 65 65 , accueil@amnesty.fr ,https://www.amnesty.fr/,,amnesty international est un mouvement de plus de 7 millions de personnes qui se battent chaque j...,,"76, Boulevard de la Villette, Quartier du Combat, Paris 19e Arrondissement, Paris, Île-de-France, France métropolitaine, 75019, France","(48.8757911, 2.3731573, 0.0)",48.8757911,2.3731573,0.0
6,association des jeunes guinéens de france,30618,85.76470588235294,economic recovery and development,,50 rue des tournelles 75003 paris france,  07 61 28 99 9507 61 28 99 95  , ajgf_info@yahoo.fr  ,http://www.facebook.com/pages/AJGF-Association-...,,les actions de l’ajgf sont centrées autour de plusieurs objectifs: – renforcer la solidarité et l...,,"Radio Campus Paris, 50, Rue des Tournelles, Quartier des Archives, Paris 3e Arrondissement, Paris, Île-de-France, France métropolitaine, 75003, France","(48.8562253, 2.3674121, 0.0)",48.8562253,2.3674121,0.0
7,association pour la diffusion internationale francophone de livres ouvrages et revues adiflor,1063,2.977591036414566,education,,94 boulevard pereire  75017 paris france,  01 40 54 78 0501 40 54 78 05  , contact@adiflor.org ,http://www.adiflor.org,,adiflor s’est fixée plusieurs missions : encourager faire vivre la lecture en français partout d...,,"94, Boulevard Pereire, Quartier de la Plaine-de-Monceau, Paris 17e Arrondissement, Paris, Île-de-France, France métropolitaine, 75017, France","(48.8867618, 2.2995052, 0.0)",48.8867618,2.2995052,0.0
8,autremonde,2324,6.509803921568627,protection,,30 rue de la mare  75020 paris france,  01 43 14 96 8701 43 14 96 87  ,contact@autremonde.org  ,http://www.autremonde.org,,créée en 1994 association basée à paris autremonde est constituée d’acteurs désireux d’agir dan...,,"30, Rue de la Mare, Quartier de Belleville, Paris 20e Arrondissement, Paris, Île-de-France, France métropolitaine, 75020, France","(48.8705127, 2.3894915, 0.0)",48.8705127,2.3894915,0.0
9,care france,67684,189.59103641456582,humanitarian ,,71 rue archereau 75019 paris france,  01 53 19 89 8901 53 19 89 89  ,info-care@carefrance.org  ,http://www.carefrance.org,,care est une association de solidarité internationale non confessionnelle et apolitique qui reg...,,"71, Rue Archereau, Quartier de la Villette, Paris 19e Arrondissement, Paris, Île-de-France, France métropolitaine, 75019, France","(48.8932631, 2.3763735, 0.0)",48.8932631,2.3763735,0.0
10,centre de documentation d'information et d'animation pour le développement et la solidarité internationale cdsi,513,1.4369747899159664,education,,19 rue de wicardenne  62200 boulognesurmer france,  03 21 31 12 0203 21 31 12 02  ,cdsiboulogne@ritimo.org  ,http://cdsi62200.livehost.fr,,accueil du publicmaison des associations – du lundi au jeudi de 9h à 12 et 14h à 17h30 le ...,,,,,,
11,centre d’entrainement aux méthodes d’education active,3417,9.571428571428571,health,,24 rue marc seguin 75883 paris france,  01 53 26 24 2401 53 26 24 24  ,contact@cemea.asso.fr  ,http://www.cemea.asso.fr,,les ceméa mouvement d’éducation nouvelle association d’éducation populaire et organisme de for...,,"CEMÉA, 24, Rue Marc Séguin, Quartier de la Chapelle, Paris 18e Arrondissement, Paris, Île-de-France, France métropolitaine, 75883, France","(48.8921663, 2.3621363, 0.0)",48.8921663,2.3621363,0.0
12,centre primo levi,12110,33.92156862745098,health,,107 avenue parmentier paris france,  01 43 14 88 50 01 43 14 88 50, primolevi@primolevi.org  ,http://www.primolevi.org,,créé en 1995 par amnesty international médecins du monde acat juristes sans frontières et trêv...,,"107, Avenue Parmentier, Quartier de l'Hôpital Saint-Louis, Paris 10e Arrondissement, Paris, Île-de-France, France métropolitaine, 75010, France","(48.8673978, 2.3727975, 0.0)",48.8673978,2.3727975,0.0
13,centre régional d'information et de prévention du sida crips iledefrance,2936,8.224089635854341,health,,14 rue maublanc  75015 paris france,  01 56 80 33 3301 56 80 33 33  , info@lecrips.net  ,http://www.lecrips-idf.net,,le crips est un centre de ressources pour tous ceux qui s’impliquent en ile-de-france dans la p...,,"14, Rue Maublanc, Quartier Saint-Lambert, Paris 15e Arrondissement, Paris, Île-de-France, France métropolitaine, 75015, France","(48.8396176, 2.3000504, 0.0)",48.8396176,2.3000504,0.0
14,cfsi  comité français pour la solidarité internationale,9658,27.053221288515406,human rights democracy and governance ,,32 rue le peletier 75009 paris france,  00 33 0 1 44 83 88 50, info@cfsi.asso.fr  ,http://www.cfsi.asso.fr,,le cfsi regroupe 21 organisations agissant pour la solidarité internationale. les membres du cfsi...,,"32, Rue Le Peletier, Quartier du Faubourg-Montmartre, Paris 9e Arrondissement, Paris, Île-de-France, France métropolitaine, 75009, France","(48.8744904, 2.3393817, 0.0)",48.8744904,2.3393817,0.0
15,chd  coordination humanitaire et développement,5652,15.831932773109244,humanitarian ,,7 rue pasquier 75008 paris france,  00 33 0 1 45 49 18 65, contact@coordination-humanitaire-developpement.org  ,http://www.coordination-humanitaire-developpeme...,,coordination humanitaire et développement chd. créée en 1983 la coordination d’agen se nomme dé...,,"7, Rue Pasquier, Quartier de la Madeleine, Paris 8e Arrondissement, Paris, Île-de-France, France métropolitaine, 75008, France","(48.8718664, 2.3231406, 0.0)",48.8718664,2.3231406,0.0
16,citoyen des rues cdr,0,0.0,economic recovery and development,,38 bd henri iv  75004 paris  france,  06 60 99 78 4906 60 99 78 49  ,contact@citoyendesrues.org  ,http://www.citoyendesrues.org,,association d’aide aux enfants des rues. il s’agit : d’apporter une aide d’urgence locale « re-s...,,"Maison des Associations du IVe, 38, Boulevard Henri IV, Quartier de l'Arsenal, Paris 4e Arrondissement, Paris, Île-de-France, France métropolitaine, 75004, France","(48.8521775, 2.3663665, 0.0)",48.8521775,2.3663665,0.0
17,clong volontariat,0,0.0,humanitarian ,,14 passage dubail 75010 paris france,  01 42 05 63 0001 42 05 63 00  ,clong@clong-volontariat.org  ,http://www.clong-volontariat.org,,comité de liaison des ong de volontariat créé en 1979 le clong-volontariat regroupe des associat...,,"Centre de recherche et d'Information pour le Développement, 14, Passage Dubail, Quartier de la Porte-Saint-Martin, Paris 10e Arrondissement, Paris, Île-de-France, France métropolitaine, 75010, France","(48.8737094, 2.359693, 0.0)",48.8737094,2.359693,0.0
18,cnajep,3753,10.512605042016807,education,,12 rue tolain 75020 paris france,  01 40 21 14 2101 40 21 14 21  ,cnajep@cnajep.asso.fr  ,http://www.cnajep.asso.fr,,le cnajep est une coordination qui réunit plus de 70 mouvements nationaux de jeunesse et d’éducat...,,"12, Rue Tolain, Quartier de Charonne, Paris 20e Arrondissement, Paris, Île-de-France, France métropolitaine, 75020, France","(48.851902, 2.4041918, 0.0)",48.851902,2.4041918,0.0
19,comité contre l’esclavage moderne,988,2.7675070028011204,human rights democracy and governance,,107 avenue parmentier 75011 paris france,  01 44 52 88 9001 44 52 88 90  , infoccem@wanadoo.fr  ,http://www.esclavagemoderne.org,,créé en 1994 pour lutter contre toutes les formes d’esclavage le comité contre l’esclavage moder...,,"Les Fondus de la Raclette, 107, Avenue Parmentier, Quartier de la Folie-Méricourt, Paris 11e Arrondissement, Paris, Île-de-France, France métropolitaine, 75011, France","(48.8674268, 2.3727183, 0.0)",48.8674268,2.3727183,0.0
20,consultants sans frontières,303,0.8487394957983193,education,,7 rue rené boulanger 75010 paris,  33 01 46 27 96 60,csf@consultants-sans-frontieres.org  ,http://consultants-sans-frontieres.org/,,consultants sans frontières association à but non lucratif créée en 2001 propose les services d...,,"7, Rue René Boulanger, Quartier de la Porte-Saint-Martin, Paris 10e Arrondissement, Paris, Île-de-France, France métropolitaine, 75010, France","(48.8691293, 2.357948, 0.0)",48.8691293,2.357948,0.0
21,coordination pour l'education à la nonviolence et à la paix,5501,15.408963585434174,education,,148 rue du faubourg saint denis  75010 paris france,  01 46 33 41 5601 46 33 41 56  ,coordination@decennie.org  ,http://www.decennie.org,,l’association coordination pour l’éducation à la non-violence et à la paix fondée en 2000 sous le...,,"Rue du Faubourg Saint-Denis, Quartier Saint-Vincent-de-Paul, Paris 10e Arrondissement, Paris, Île-de-France, France métropolitaine, 75010, France","(48.8841576, 2.3592425, 0.0)",48.8841576,2.3592425,0.0
22,coordination sud,20177,56.51820728291317,education,,14 passage dubail 75010 paris france,  01 44 72 93 7201 44 72 93 72  ,sud@coordinationsud.org ,http://www.coordinationsud.org/,,coordination sud – solidarité urgence développement – est la coordination nationale des ong franç...,,"Centre de recherche et d'Information pour le Développement, 14, Passage Dubail, Quartier de la Porte-Saint-Martin, Paris 10e Arrondissement, Paris, Île-de-France, France métropolitaine, 75010, France","(48.8737094, 2.359693, 0.0)",48.8737094,2.359693,0.0
23,crid  centre de recherche et d’information pour le développement,2594,7.266106442577031,education,,14 passage dubail 75010 paris france,  01 44 72 07 7101 44 72 07 71  ,contact@crid.asso.fr ,http://www.crid.asso.fr/,,fondé en 1976 par huit associations le centre de recherche et d’information crid pour le dével...,,"Centre de recherche et d'Information pour le Développement, 14, Passage Dubail, Quartier de la Porte-Saint-Martin, Paris 10e Arrondissement, Paris, Île-de-France, France métropolitaine, 75010, France","(48.8737094, 2.359693, 0.0)",48.8737094,2.359693,0.0
24,défap  service protestant de mission,1550,4.341736694677871,education,,102 boulevard arago 75014 paris france,  01 42 34 55 5501 42 34 55 55  ,defap.rsi@protestants.org  ,http://www.defap.fr,,le service protestant de mission défap est le service de mission de trois églises protestantes ...,,"102, Boulevard Arago, Quartier du Montparnasse, Paris 14e Arrondissement, Paris, Île-de-France, France métropolitaine, 75014, France","(48.8347034, 2.3347243, 0.0)",48.8347034,2.3347243,0.0
25,délégation catholique pour la coopération,6779,18.988795518207283,education,,106 rue du bac  75007 paris france,  01 45 65 96 6501 45 65 96 65 ,ladcc@ladcc.org,http://ladcc.org,,la dcc ong catholique de développement est le service du volontariat international de l’eglise ...,,"Délégation Catholique pour la Coopération, 106, Rue du Bac, Quartier Saint-Thomas-d'Aquin, Paris 7e Arrondissement, Paris, Île-de-France, France métropolitaine, 75007, France","(48.8534158, 2.3236654, 0.0)",48.8534158,2.3236654,0.0
26,djantoli,6341,17.761904761904763,health,,204 rue de crimée 75019 paris france,  33 01 83 89 92 5133 01 83 89 92 51  , contact@djantoli.org  ,http://www.djantoli.org,,– djantoli: en afrique de l’ouest 1 enfant sur 6 n’atteint pas l’âge de 5 ans. dans 60  des cas...,,"204, Rue de Crimée, Quartier de la Villette, Paris 19e Arrondissement, Paris, Île-de-France, France métropolitaine, 75019, France","(48.892083, 2.37537, 0.0)",48.892083,2.37537,0.0
27,dossiers et débats pour le développement durable,1552,4.347338935574229,economic recovery and development,,150/154 rue du faubourg saintmartin 75010 paris france,  01 44 93 00 7001 44 93 00 70  ,contact@association4d.org  ,http://www.association4d.org,,l’association 4d a été créée en 1993 après le sommet de la terre de rio afin de constituer un r...,,,,,,
28,douleurs sans frontières dsf,2794,7.826330532212885,health,,2 rue ambroise paré  75475 paris france,  09 64 28 19 99 09 64 28 19 99  ,dsf.france@douleurs.org  ,http://www.douleurs.org,,dsf développe des projets afin de promouvoir animer et développer des actions ayant pour objet l...,,"2, Rue Ambroise Paré, Quartier Saint-Vincent-de-Paul, Paris 10e Arrondissement, Paris, Île-de-France, France métropolitaine, 75010, France","(48.88137235, 2.35461639093388, 0.0)",48.88137235,2.35461639093388,0.0
29,emmaus connect,8508,23.831932773109244,education,,71 rue archereau 75019 paris france,  18 00 59 88 00 18 00 50 00, info@emmaus-connect.org ,http://www.emmaus-connect.org,,emmaüs connect est une jeune association du mouvement emmaüs qui a pour mission de faire des télé...,,"71, Rue Archereau, Quartier de la Villette, Paris 19e Arrondissement, Paris, Île-de-France, France métropolitaine, 75019, France","(48.8932631, 2.3763735, 0.0)",48.8932631,2.3763735,0.0
30,emmaüs défi,15928,44.61624649859944,protection,,6 rue archereau 75019 paris france,  06 19 99 13 69 06 19 99 13 69  ,shollebecq@emmaus-defi.org,http://emmaus-defi.org/,,emmaüs défi est un laboratoire d’innovation sociale reposant sur un chantier d’insertion luttant ...,,,,,,
31,enfants  développement ed,4498,12.599439775910364,health,,13 rue jules simon  75015 paris france,  01 53 68 98 2001 53 68 98 20  ,siege@enfantsetdeveloppement.org  ,http://www.enfantsetdeveloppement.org,,enfants  développement a pour vocation d’améliorer les conditions de vie des enfants les plu...,,"13, Rue Jules Simon, Quartier Saint-Lambert, Paris 15e Arrondissement, Paris, Île-de-France, France métropolitaine, 75015, France","(48.8402994, 2.2931515, 0.0)",48.8402994,2.2931515,0.0
32,environnement développement action,0,0.0,environment,,5 rue des immeubles industriels 75011 paris france,  01 44 93 87 4001 44 93 87 40  ,contact@enda-europe.org,http://www.enda-europe.org,,enda europe est une association de droit français loi 1901 issue de l’ong internationale enda t...,,"5, Rue des Immeubles Industriels, Quartier Sainte-Marguerite, Paris 11e Arrondissement, Paris, Île-de-France, France métropolitaine, 75011, France","(48.8493561, 2.3927206, 0.0)",48.8493561,2.3927206,0.0
33,envol vert,6,0.01680672268907563,environment,,44 rue de montreuil 75011 paris france , ,coordination@envol-vert.org  ,http://envol-vert.org,,l’objectif d’envol vert est de préserver la forêt et la biodiversité dans les pays le...,,"44, Rue de Montreuil, Quartier Sainte-Marguerite, Paris 11e Arrondissement, Paris, Île-de-France, France métropolitaine, 75011, France","(48.850392, 2.3877068, 0.0)",48.850392,2.3877068,0.0
34,etudiants et développement,509,1.4257703081232493,education,,50 rue des tournelles 75003 paris france,  33 01 55 86 74 41 33 ,animation@etudiantsetdeveloppement.org ,http://www.etudiantsetdeveloppement.org,,etudiants et développement ed est une association nationale de solidarité internationale e...,,"Radio Campus Paris, 50, Rue des Tournelles, Quartier des Archives, Paris 3e Arrondissement, Paris, Île-de-France, France métropolitaine, 75003, France","(48.8562253, 2.3674121, 0.0)",48.8562253,2.3674121,0.0
35,f3e,764,2.1400560224089635,education,,32 rue le peletier 75009 paris france,  33 01 44 83 03 55 33 , f3e@f3e.asso.fr,http://f3e.asso.fr/,,créé en 1994 le f3e est un réseau pluri-acteurs composé de 80 ong collectivités territoriales e...,,"32, Rue Le Peletier, Quartier du Faubourg-Montmartre, Paris 9e Arrondissement, Paris, Île-de-France, France métropolitaine, 75009, France","(48.8744904, 2.3393817, 0.0)",48.8744904,2.3393817,0.0
36,fédération des associations franco africaines de développement fafrad,3708,10.38655462184874,education,, 11 rue caillaux  75013 paris france,  06 75 03 74 6206 75 03 74 62 , fafrad@free.fr  ,http://www.fafrad.org,,la fafrad-économique assiste les porteurs de projet dans la recherche de financements appropriés....,,"11, Rue Caillaux, Quartier de la Maison-Blanche, Paris 13e Arrondissement, Paris, Île-de-France, France métropolitaine, 75013, France","(48.8226451, 2.3613206, 0.0)",48.8226451,2.3613206,0.0
37,fédération française des maisons de jeunes et de la culture,6141,17.201680672268907,education,,15 rue la condamine 75017 paris france,  01 44 69 82 2501 44 69 82 25  ,contact@ffmjc.org,http://www.ffmjc.org,,la fédération française des maisons de jeunes et de la culture a pour but de:  permettre à chacun...,,"15, Rue la Condamine, Quartier des Batignolles, Paris 17e Arrondissement, Paris, Île-de-France, France métropolitaine, 75017, France","(48.8874288, 2.3237815, 0.0)",48.8874288,2.3237815,0.0
38,fédération léo lagrange,5952,16.672268907563026,education,,150 rue des poissonniers  75883 paris  france,  01 53 09 00 0001 53 09 00 00  ,accueil.fll@leolagrange.org  ,http://www.leolagrange.org,,réseau d’associations d’éducation populaire et employeur de l’économie sociale et solidaire dont ...,,"150, Rue des Poissonniers, Quartier de la Goutte-d'Or, Paris 18e Arrondissement, Paris, Île-de-France, France métropolitaine, 75018, France","(48.8976272, 2.3527692, 0.0)",48.8976272,2.3527692,0.0
39,femmes de la terre,313,0.876750700280112,human rights democracy and governance,,2 rue de la solidarité 75019 paris france,  01 48 06 03 3401 48 06 03 34  ,contact@femmesdelaterre.org ,http://www.femmesdelaterre.org,,permanence juridique en droit des étrangers pour les femmes leurs familles et les jeunes. l’obje...,,"2, Rue de la Solidarité, Quartier d'Amérique, Paris 19e Arrondissement, Paris, Île-de-France, France métropolitaine, 75019, France","(48.8830833, 2.3899653, 0.0)",48.8830833,2.3899653,0.0
40,femmes et contributions au développement,26,0.07282913165266107,economic recovery and development,,9 rue mathis 75019 paris france,  01 55 26 82 1001 55 26 82 10  ,fecodev@gmail.com,http://fecodev.com,,à l’heure où la question du genre prend de l’importance à tous les niveaux et dans tous les domai...,,"9, Rue Mathis, Quartier de la Villette, Paris 19e Arrondissement, Paris, Île-de-France, France métropolitaine, 75019, France","(48.890647, 2.375619, 0.0)",48.890647,2.375619,0.0
41,fidesco,13112,36.72829131652661,humanitarian ,,91 bd auguste blanqui 75013 paris france,  01 58 10 74 8401 58 10 74 84  ,contact@fidesco.fr ,http://www.fidesco.fr,,organisation catholique de solidarité internationale fidesco envoie des volontaires dans les pay...,,"Boulevard Auguste Blanqui, Quartier de Croulebarbe, Paris 13e Arrondissement, Paris, Île-de-France, France métropolitaine, 75013, France","(48.8297485, 2.3493566, 0.0)",48.8297485,2.3493566,0.0
42,fondation abbé pierre pour le logement des défavorisés,293773,822.8935574229691,human rights ,,3/5 rue de romainville 75019 paris france,  01 55 56 37 0001 55 56 37 00  , contact@fondation-abbe-pierre.fr  ,http://www.fondation-abbe-pierre.fr,,fidèle à l’esprit de l’abbé pierre la fondation poursuit son combat : elle lutte pour que chacun...,,"Rue de Romainville, Quartier d'Amérique, Paris 19e Arrondissement, Paris, Île-de-France, France métropolitaine, 75019, France","(48.8775103, 2.4022702, 0.0)",48.8775103,2.4022702,0.0
43,fondation energies pour le monde  fondem,1097,3.0728291316526612,environment,,146 rue de l’université 75007 paris france ,  01 44 18 00 8001 44 18 00 80  , energiespourlemonde@energies-renouvelables.org,http://www.fondem.ong,,depuis 1990 la fondation énergies pour le monde et ses partenaires favorisent l’accès à l’électr...,,"146, Rue de l'Université, Quartier des Invalides, Paris 7e Arrondissement, Paris, Île-de-France, France métropolitaine, 75007, France","(48.8611739, 2.3096174, 0.0)",48.8611739,2.3096174,0.0
44,goodplanet,123247,345.2296918767507,environment,,1 carrefour de longchamp 75116 paris france,  33 01 48 42 01 0133 , contact@goodplanet.org  ,http://www.goodplanet.org,,fondation reconnue d’utilité publique présidée par yann arthus-bertrand goodplanet a pour missio...,,"Fondation GoodPlanet, 1, Carrefour de Longchamp, Quartier de la Muette, Paris 16e Arrondissement, Paris, Île-de-France, France métropolitaine, 75116, France","(48.8646585, 2.2381118, 0.0)",48.8646585,2.2381118,0.0
45,forim  forum des organisations de solidarité internationale issues des migrations,6589,18.45658263305322,education,,14 passage dubail 75010 paris france,  01 44 72 02 8801 44 72 02 88, forim@forim.net  ,http://www.forim.net,,le forum des organisations de solidarité internationale issues des migrations en abrégé forim ...,,"Centre de recherche et d'Information pour le Développement, 14, Passage Dubail, Quartier de la Porte-Saint-Martin, Paris 10e Arrondissement, Paris, Île-de-France, France métropolitaine, 75010, France","(48.8737094, 2.359693, 0.0)",48.8737094,2.359693,0.0
46,formation pour l’epanouissement et le renouveau de la terre,3258,9.126050420168067,environment,,5 rue joseph et marie hackin 75116 paris france,  01 44 31 16 7001 44 31 16 70  ,fert@fert.fr  ,http://www.fert.fr,,fert est une association de coopération internationale créée en 1981 par la volonté de responsabl...,,"Rue Joseph et Marie Hackin, Quartier de la Porte-Dauphine, Paris 16e Arrondissement, Paris, Île-de-France, France métropolitaine, 75116, France","(48.8774508, 2.2792956, 0.0)",48.8774508,2.2792956,0.0
47,france libertés  fondation danielle mitterrand,11071,31.011204481792717,human rights democracy and governance,,22 rue de milan 75009 paris france,  01 53 25 10 4001 53 25 10 40  ,contact@france-libertes.fr  ,http://www.france-libertes.fr,,fondée en 1986 par mme danielle mitterrand france libertés est une fondation reconnue d’utilité ...,,"22, Rue de Milan, Quartier Saint-Georges, Paris 9e Arrondissement, Paris, Île-de-France, France métropolitaine, 75009, France","(48.8788185, 2.3274382, 0.0)",48.8788185,2.3274382,0.0
48,france terre d'asile,38259,107.16806722689076,human rights democracy and governance,,24 rue marc seguin 75018 paris  france,  01 53 04 39 9901 53 04 39 99  , infos@france-terre-asile.org ,http://www.france-terre-asile.org,,l’association selon la loi du 1er juillet 1901 dite france terre d’asile fondée en ...,,"24, Rue Marc Séguin, Quartier de la Chapelle, Paris 18e Arrondissement, Paris, Île-de-France, France métropolitaine, 75018, France","(48.8921197, 2.362167, 0.0)",48.8921197,2.362167,0.0
49,frères des hommes,3471,9.722689075630251,economic recovery and development,,2 rue de savoie 75006 paris france,  01 55 42 62 72 01 55 42 62 72 ,contact.pepiniere@fdh.org ,https://www.fdh.org,,fondée en 1965 frères des hommes est une association de solidarité internationale reconnue d’uti...,,"2, Rue de Savoie, Quartier de la Monnaie, Paris 6e Arrondissement, Paris, Île-de-France, France métropolitaine, 75006, France","(48.8542846, 2.3420712, 0.0)",48.8542846,2.3420712,0.0
50,ginkgo volunteers in action,8,0.022408963585434174,economic recovery and development,,204 rue de crimée paris france ,  01 40 05 50 50 01 40 05 50 50  ,contact@ginkgo-volunteers.org  ,http://www.ginkgo-volunteers.org/,,créée en 2006 sous le nom de développement sans frontières ginkgo – volunteers in action e...,,"204, Rue de Crimée, Quartier de la Villette, Paris 19e Arrondissement, Paris, Île-de-France, France métropolitaine, 75019, France","(48.892083, 2.37537, 0.0)",48.892083,2.37537,0.0
51,gretprofessionnels du développement solidaire,6983,19.560224089635856,economic recovery and development,,45 avenue de la belle gabrielle 75012 paris france,  01 70 91 92 0001 70 91 92 00  ,gret@gret.org ,http://www.gret.org,,fondé en 1976 le gret est une ong professionnelle de développement solidaire. actif dans plus de...,,"Gret, 45 bis, Avenue de la Belle Gabrielle, Quartier de Picpus, Paris 12e Arrondissement, Paris, Île-de-France, France métropolitaine, 75012, France","(48.8346707, 2.4663432, 0.0)",48.8346707,2.4663432,0.0
52,groupe d'information et de soutien des immigré.e.s gisti,14224,39.84313725490196,human rights democracy and governance,,3 villa marcès  75011 paris france,  01 43 14 84 8401 43 14 84 84  ,gisti@gisti.org ,http://www.gisti.org,,accueil du publicla permanence téléphonique n’est accessible que par courrier ou téléphone ...,,"3, Villa Marcès, Quartier de la Roquette, Paris 11e Arrondissement, Paris, Île-de-France, France métropolitaine, 75011, France","(48.8587474, 2.3756058, 0.0)",48.8587474,2.3756058,0.0
53,habitatcité,1186,3.3221288515406164,economic recovery and development,,62 rue vergniaud 75013 paris,  01 45 88 71 7501 45 88 71 75  , association@habitat-cite.org ,http://www.habitat-cite.org,,habitat-cité se mobilise contre l’augmentation des inégalités dans un monde où la misère et les ...,,"62, Rue Vergniaud, Quartier de la Maison-Blanche, Paris 13e Arrondissement, Paris, Île-de-France, France métropolitaine, 75013, France","(48.8248471, 2.344665, 0.0)",48.8248471,2.344665,0.0
54,immigration développement démocratie,1048,2.9355742296918765,economic recovery and development,,130 rue des poissonniers 75018 paris,  01 55 79 09 3401 55 79 09 34  ,projet@idd-reseau.org ,http://http://www.idd-reseau.org/,,idd est un réseau d’associations issues de l’immigration marocaine en france qui se veut une plat...,,"130, Rue des Poissonniers, Quartier de la Goutte-d'Or, Paris 18e Arrondissement, Paris, Île-de-France, France métropolitaine, 75018, France","(48.8957525, 2.3531195, 0.0)",48.8957525,2.3531195,0.0
55,ingénieurs sans frontières,10629,29.77310924369748,education,,146 rue de crimée 75019 paris,  01 53 35 05 4001 53 35 05 40  ,courrier@isf-france.org ,http://www.isf-france.org,,ingénieurs sans frontières – association de solidarité internationalecréée en 1982 – s’engage à f...,,"Ingénieurs sans frontières, 146, Rue de Crimée, Quartier de la Villette, Paris 19e Arrondissement, Paris, Île-de-France, France métropolitaine, 75019, France","(48.8873433, 2.3806977, 0.0)",48.8873433,2.3806977,0.0
56,institut belleville,0,0.0,human rights democracy and governance,,4 boulevard de la villette 75020 paris france,  33 0 1 42 03 81 3733 0 1 42 03 81 37  33 , institutbelleville@cfdt.fr  ,http://www.cfdt.fr/jcms/rec_110235/l-institut-b...,,l’institut belleville est l’institut de coopération créé en 1984 par la cfdt pour mettre en œuvre...,,"4, Boulevard de la Villette, Quartier du Combat, Paris 19e Arrondissement, Paris, Île-de-France, France métropolitaine, 75019, France","(48.8726074, 2.3767722, 0.0)",48.8726074,2.3767722,0.0
57,institut de coopération sociale internationale icosi,603,1.6890756302521008,economic recovery and development,,10 rue cambacérès  75008 paris france,  01 71 18 61 9301 71 18 61 93  , info@icosi.org  ,http://www.icosi.org,,créé en 1983 l’institut de coopération sociale internationale a pour objet de :promouvoir les va...,,"10, Rue Cambacérès, Quartier de la Madeleine, Paris 8e Arrondissement, Paris, Île-de-France, France métropolitaine, 75008, France","(48.8726689, 2.3180993, 0.0)",48.8726689,2.3180993,0.0
58,institut de recherche et d’applications des méthodes de développement,0,0.0,economic recovery and development,,49 rue de la glacière 75013 paris,  01 44 08 67 6701 44 08 67 67 , iram@iram-fr.org  ,http://www.iram-fr.org,,l’iram – institut de recherches et d’applications des méthodes de développement – travaille dans ...,,"49, Rue de la Glacière, Quartier de la Maison-Blanche, Paris 13e Arrondissement, Paris, Île-de-France, France métropolitaine, 75013, France","(48.832526, 2.34467, 0.0)",48.832526,2.34467,0.0
59,institut kurde de paris fikp,9649,27.028011204481793,education,,106 rue la fayette 75010 paris france,  01 48 24 64 6401 48 24 64 64  , infos@fikp.org ,http://www.institutkurde.org,,l’institut a pour vocation d’entretenir la communauté kurde dans la connaissance de sa langue de...,,"La Dimension Fantastique, 106, Rue La Fayette, Quartier de l'Hôpital Saint-Louis, Paris 10e Arrondissement, Paris, Île-de-France, France métropolitaine, 75010, France","(48.8776237, 2.3510223, 0.0)",48.8776237,2.3510223,0.0
60,interréseaux développement rural interréseaux,2880,8.067226890756302,economic recovery and development,,32 rue le peletier 75009 paris france ,  01 42 46 57 1301 42 46 57 13  , inter-reseaux@inter-reseaux.org,http://www.inter-reseaux.org,,inter-réseaux développement rural est un réseau multi-acteurs au service de ses membres et utile ...,,"32, Rue Le Peletier, Quartier du Faubourg-Montmartre, Paris 9e Arrondissement, Paris, Île-de-France, France métropolitaine, 75009, France","(48.8744904, 2.3393817, 0.0)",48.8744904,2.3393817,0.0
61,intercordia,1723,4.826330532212885,education,,84 quai de jemmapes paris  france, 18 41 69 15 70 18 41 60 000,baptiste.anguis@intercordia.org,http://www.intercordia.org,,intercordia participe à la diffusion d’une culture de paix en formant des jeunes qui s’engagent p...,,"Cristallerie Schweitzer, 84, Quai de Jemmapes, Quartier de la Porte-Saint-Martin, Paris 10e Arrondissement, Paris, Île-de-France, France métropolitaine, 75010, France","(48.8724667, 2.3649429, 0.0)",48.8724667,2.3649429,0.0
62,inversonslaclasse!,3359,9.408963585434174,education,,9 rue saintluc paris france, ,mission2.inversonslaclasse@gmail.com,http://www.laclasseinversee.com/,,inversons la classe! impulse accélère et nourrit les changements de pratiques enseignantes par l...,,,,,,
63,justice et paix france,0,0.0,human rights democracy and governance,,58 avenue de breteuil  75007 paris,  01 72 36 69 0301 72 36 69 03 , justice.paix@cef.fr ,http://www.justice-paix.cef.fr,,justice et paix veut être une voix qui soit à la fois pertinente et évangélique et aider les chré...,,"Avenue de Breteuil, Quartier de l'École Militaire, Paris 7e Arrondissement, Paris, Île-de-France, France métropolitaine, 75007, France","(48.8517067, 2.3125359, 0.0)",48.8517067,2.3125359,0.0
64,l'un est l'autre,1608,4.504201680672269,humanitarian ,,15 avenue de la porte de la villette 75019 paris france,  06 27 74 47 08 06 27 74 47 08  , coordination@lunestlautre.org,http://lunestlautre.org,,créée en 2003 l’un est l’autre est une association d’entraide loi 1901 reconnue d’intérêt géné...,,"Glazart, 7, 15, Avenue de la Porte de la Villette, Quartier du Pont-de-Flandre, Paris 19e Arrondissement, Paris, Île-de-France, France métropolitaine, 75019, France","(48.899283, 2.3866102329979895, 0.0)",48.899283,2.3866102329979895,0.0
65,la cimade,92106,258.0,human rights democracy and governance,,64 rue clisson 75013 paris france,  01 44 18 60 5001 44 18 60 50  , infos@lacimade.org  ,http://www.lacimade.org/,,la cimade accueille et accompagne plusieurs dizaines de milliers de migrants et de demandeurs d’a...,,"Rue Clisson, Quartier de la Gare, Paris 13e Arrondissement, Paris, Île-de-France, France métropolitaine, 75013, France","(48.8294491, 2.36541, 0.0)",48.8294491,2.36541,0.0
66,la guilde,8657,24.249299719887954,economic recovery and development,,7 rue pasquier 75008 paris,  01 56 81 16 62 01 56 81 16 62  , yoanna.talopp@la-guilde.org ,http://la-guilde.org/,,la guilde est une organisation non gouvernementale ong créée en 1967 par patrick edel qui en a...,,"7, Rue Pasquier, Quartier de la Madeleine, Paris 8e Arrondissement, Paris, Île-de-France, France métropolitaine, 75008, France","(48.8718664, 2.3231406, 0.0)",48.8718664,2.3231406,0.0
67,ldh  ligue des droits de l'homme,157098,440.0504201680672,human rights democracy and governance,,138 rue marcadet 75018 paris france,  01 56 55 51 0001 56 55 51 00  , ldh@ldh-france.org,http://www.ldh-france.org,,créée en 1898 pour défendre un innocent le capitaine dreyfus la ligue des droits de l’homme et ...,,"138, Rue Marcadet, Quartier de la Goutte-d'Or, Paris 18e Arrondissement, Paris, Île-de-France, France métropolitaine, 75018, France","(48.8913655, 2.3392301, 0.0)",48.8913655,2.3392301,0.0
68,life project 4 youth alliance,11617,32.5406162464986,education,,53 avenue de segur 75007 paris france,  91 97 17 26 62 49 91 97 17 26 62 49  , jeanmarc.delaporte@lp4y.org ,http://www.lp4y.org,,the lp4y alliance is a group of autonomous humanitarian organizations working to support lp4y in ...,,"53, Avenue de Ségur, Quartier de l'École Militaire, Paris 7e Arrondissement, Paris, Île-de-France, France métropolitaine, 75007, France","(48.849804, 2.3084169, 0.0)",48.849804,2.3084169,0.0
69,médecins du monde,430242,1205.1596638655462,health,,62 rue marcadet 75018 paris,  01 44 92 15 1501 44 92 15 15  ,infomdm@medecinsdumonde.net ,http://www.medecinsdumonde.org/fr,,médecins du monde association médicale militante de solidarité internationale s’engage de...,,"Médecins du monde, 62, Rue Marcadet, Quartier de Clignancourt, Paris 18e Arrondissement, Paris, Île-de-France, France métropolitaine, 75018, France","(48.890702000000005, 2.34882109616498, 0.0)",48.890702000000005,2.34882109616498,0.0
70,médecins sans frontières  msf,11202519,31379.605042016807,health,,8 rue saintsabin 75011 paris france  ,  01 40 21 29 2901 40 21 29 29  contact@msf.fr  http://www.msf.fr/ ,contact@msf.fr  ,http://www.msf.fr/,,médecins sans frontières est une association médicale humanitaire internationale créée en 1971 à...,,,,,,
71,mission d’aide au développement des economies rurales en afghanistan,4,0.011204481792717087,economic recovery and development,,3 rue roubo 75011 paris france,  01 43 70 50 0701 43 70 50 07  contact@madera.asso.fr  http://www.madera-asso.org ,contact@madera.asso.fr  ,http://www.madera-asso.org,,mission d’aide au développement des économies rurales en afghanistan  est une association de soli...,,"3, Rue Roubo, Quartier Sainte-Marguerite, Paris 11e Arrondissement, Paris, Île-de-France, France métropolitaine, 75011, France","(48.8501863, 2.3872255, 0.0)",48.8501863,2.3872255,0.0
72,observatoire international des prisons,20229,56.66386554621849,human rights democracy and governance,,7 rue riquet 75019 paris france,  01 44 52 87 9001 44 52 87 90  contact@oip.org  http://www.oip.org ,contact@oip.org ,http://www.oip.org,,l’observatoire international des prisons oip est né en 1990 à lyon france avec pour but...,,"7, Rue Riquet, Quartier de la Villette, Paris 19e Arrondissement, Paris, Île-de-France, France métropolitaine, 75019, France","(48.8881639, 2.3763312, 0.0)",48.8881639,2.3763312,0.0
73,ordre de malte france,45387,127.1344537815126,protection,,42 rue des volontaires 75015 paris,  33 01 45 20 80 2033 01 45 20 80 20  contact@ordredemaltefrance.org  http://www.ordredemaltefrance.org , contact@ordredemaltefrance.org  ,http://www.ordredemaltefrance.org,,reconnue d’utilité publique l’ordre de malte france est une association portée par les valeurs c...,,"Ordre de Malte France, 42, Rue des Volontaires, Quartier Necker, Paris 15e Arrondissement, Paris, Île-de-France, France métropolitaine, 75015, France","(48.840296, 2.3084711, 0.0)",48.840296,2.3084711,0.0
74,organisation panafricaine de lutte pour la santé,872,2.442577030812325,health,,96 rue didot 75014 paris france,  01 45 42 08 2501 45 42 08 25  programmes@opals.asso.fr  http://www.opals.asso.fr , programmes@opals.asso.fr  ,http://www.opals.asso.fr,,l’opals organisation pan africaine de lutte contre le sida est créée en 1988 par des médecins s...,,"96, Rue Didot, Quartier de Plaisance, Paris 14e Arrondissement, Paris, Île-de-France, France métropolitaine, 75014, France","(48.827419, 2.3145182, 0.0)",48.827419,2.3145182,0.0
75,organisation pour la prévention de la cécité,1323,3.7058823529411766,health,,17 villa d’alésia 75014 paris,  33 01 44 12 41 9033 01 44 12 41 90  opc@opc.asso.fr  http://www.opc.asso.fr/ ,opc@opc.asso.fr  ,http://www.opc.asso.fr/,,l’organisation pour la prévention de la cécité opc est une ong française qui intervient en afri...,,"17, Villa d'Alésia, Quartier du Petit-Montrouge, Paris 14e Arrondissement, Paris, Île-de-France, France métropolitaine, 75014, France","(48.8280025, 2.3248635, 0.0)",48.8280025,2.3248635,0.0
76,orphelins sida international,2235,6.260504201680672,health,,4 rue de belfort paris france,  01 47 97 54 9401 47 97 54 94  contact@orphelins-sida.org  http://www.orphelins-sida.org/index.php ,contact@orphelins-sida.org ,http://www.orphelins-sida.org/index.php,,« ne doutez pas qu’un petit nombre de personnes déterminées puisse changer le monde en fai...,,"4, Rue de Belfort, Quartier de la Roquette, Paris 11e Arrondissement, Paris, Île-de-France, France métropolitaine, 75011, France","(48.8563759, 2.3833835, 0.0)",48.8563759,2.3833835,0.0
77,oxfam france,146152,409.3893557422969,economic recovery and development,,104 rue oberkampf 75011 paris,  01 56 98 24 4001 56 98 24 40  01 77 35 76 11  info@oxfamfrance.org  http://www.oxfamfrance.org ,info@oxfamfrance.org,http://www.oxfamfrance.org,,oxfam france est membre de la confédération internationale oxfam une organisation internationale...,,"104;106, Rue Oberkampf, Quartier Saint-Ambroise, Paris 11e Arrondissement, Paris, Île-de-France, France métropolitaine, 75011, France","(48.8658774, 2.3785891, 0.0)",48.8658774,2.3785891,0.0
78,pah  les pharmaciens humanitaires,1837,5.1456582633053225,health,,84 rue de charonne 75011 paris france,,info@pah-lespharmacienshumanitaires.org  ,http://www.pah-lespharmacienshumanitaires.org,,« pah les pharmaciens humanitaires » est une ong composée de professionnels de la solidarité int...,,"Diagonal, 84, Rue de Charonne, Quartier Sainte-Marguerite, Paris 11e Arrondissement, Paris, Île-de-France, France métropolitaine, 75011, France","(48.8536482, 2.3811735, 0.0)",48.8536482,2.3811735,0.0
79,partenaires,771,2.1596638655462184,economic recovery and development,,41 rue des maronites 75020 paris france ,  01 73 77 77 9801 73 77 77 98  info@partenaires-association.org  http://www.partenaires-association.org ,info@partenaires-association.org ,http://www.partenaires-association.org,,l’association partenaires intervient dans les régions les plus pauvres du monde depuis 1991 prin...,,"41, Rue des Maronites, Quartier de Belleville, Paris 20e Arrondissement, Paris, Île-de-France, France métropolitaine, 75020, France","(48.8689595, 2.3852687, 0.0)",48.8689595,2.3852687,0.0
80,peace brigades international section française pbi france,1629,4.563025210084033,human rights democracy and governance ,,21b rue voltaire  75011 paris,  01 43 73 49 6001 43 73 49 60  pbi.france@free.fr  http://www.pbi-france.org ,pbi.france@free.fr ,http://www.pbi-france.org,,association de défense des droits humains et de résolution non-violente des conflits pbi appliqu...,,"21b, Rue Voltaire, Quartier Sainte-Marguerite, Paris 11e Arrondissement, Paris, Île-de-France, France métropolitaine, 75011, France","(48.8527037, 2.3919532, 0.0)",48.8527037,2.3919532,0.0
81,pisad,209,0.5854341736694678,environment,,96 rue saintdominique 75007 paris france,  33 01 42 22 54 54 33 01 42 22 54 54   33 01 42 22 54 54 33 01 42 22 54 54  contact@pisad.org  http://pisad.org/ ,contact@pisad.org ,http://pisad.org/,,le pisad est une association environnementale et humanitaire œuvrant pour la protection de lrsqu...,,,,,,
82,planète enfants  développement,4498,12.599439775910364,protection,,53 boulevard de charonne 75011 paris,  01 53 34 86 3201 53 34 86 32  siege@planete-enfants.org  http://www.planete-enfants.org ,siege@planete-enfants.org  ,http://www.planete-enfants.org,,planète enfants  développement est née en 2016 ,,"Boulevard de Charonne, Quartier de la Roquette, Paris 11e Arrondissement, Paris, Île-de-France, France métropolitaine, 75011, France","(48.8583795, 2.3894172, 0.0)",48.8583795,2.3894172,0.0
83,planète urgence,15089,42.26610644257703,environment,,39 rue crozatier 75012 paris france ,  01 43 40 42 0001 43 40 42 00  accueil@planete-urgence.org  http://www.planete-urgence.org ,accueil@planete-urgence.org ,http://www.planete-urgence.org,,renforcer l’autonomie des populations et la protection de l’environnement. deux programmes princi...,,"39, Rue Crozatier, Quartier des Quinze-Vingts, Paris 12e Arrondissement, Paris, Île-de-France, France métropolitaine, 75012, France","(48.8474367, 2.3810296, 0.0)",48.8474367,2.3810296,0.0
84,plateforme d’associations francohaïtienne,662,1.854341736694678,protection,, 6 villa guelma 75018 paris,  33 9 50 99 65 9333 9 50 99 65 93  contact@pafha.fr  http://www.pafha.fr/ ,contact@pafha.fr  ,http://www.pafha.fr/,,la mise en place de la pafha est l’aboutissement d’une démarche concertée entre les associations....,,"6, Villa de Guelma, Quartier des Grandes-Carrières, Paris 18e Arrondissement, Paris, Île-de-France, France métropolitaine, 75018, France","(48.8829788, 2.337112, 0.0)",48.8829788,2.337112,0.0
85,prisonniers sans frontières,481,1.3473389355742298,human rights democracy and governance,,13 rue des amiraux 75018 paris france ,  3301 40 38 24 303301 40 38 24 30  prsf@prsf.org  https://www.prsf.fr ,prsf@prsf.org ,https://www.prsf.fr,,créée en 1995 à partir d’abidjan prisonniers sans frontières s’est fixé pour mission de contribu...,,"13, Rue des Amiraux, Quartier de Clignancourt, Paris 18e Arrondissement, Paris, Île-de-France, France métropolitaine, 75018, France","(48.8944928, 2.3510646, 0.0)",48.8944928,2.3510646,0.0
86,remed  réseau médicaments et développement,39,0.1092436974789916,health ,,35 rue daviel 75013 paris,  01 53 80 20 2001 53 80 20 20  e.daniel@remed.org  http://www.remed.org ,e.daniel@remed.org ,http://www.remed.org,,créé en 1993 remed est une association loi 1901 reconnue d’utilité publique dont l’objectif est ...,,"35, Rue Daviel, Quartier de la Maison-Blanche, Paris 13e Arrondissement, Paris, Île-de-France, France métropolitaine, 75013, France","(48.8283268, 2.3434999, 0.0)",48.8283268,2.3434999,0.0
87,réseau des centres de documentation et d’information pour le développement et la solidarité internationale,0,0.0,education,,21b rue voltaire 75011 paris,  01 44 64 74 1401 44 64 74 14  contact@ritimo.org  http://www.ritimo.org ,contact@ritimo.org  ,http://www.ritimo.org,,depuis 25 ans le réseau ritimo regroupe en france des lieux et des organisations centres de doc...,,"21b, Rue Voltaire, Quartier Sainte-Marguerite, Paris 11e Arrondissement, Paris, Île-de-France, France métropolitaine, 75011, France","(48.8527037, 2.3919532, 0.0)",48.8527037,2.3919532,0.0
88,résonances humanitaires,2465,6.904761904761905,protection,,72 rue orfila 75020 paris,  01 46 36 10 3601 46 36 10 36  contact@resonanceshumanitaires.org  http://www.resonanceshumanitaires.org/ , contact@resonanceshumanitaires.org ,http://www.resonanceshumanitaires.org/,,résonances humanitaires est une association loi 1901 créée en juillet 2002 à but non lucratif ...,,"72, Rue Orfila, Quartier du Père-Lachaise, Paris 20e Arrondissement, Paris, Île-de-France, France métropolitaine, 75020, France","(48.8670987, 2.3981612, 0.0)",48.8670987,2.3981612,0.0
89,s'aiddes,0,0.0,economic recovery and development,,128 rue de la croix nivert 75015 paris france,  06 76 28 30 5306 76 28 30 53  jeanloup.guibert@yahoo.fr  http://saiddes.org ,jeanloup.guibert@yahoo.fr  ,http://saiddes.org,,subventions et cycle des projets   la fondation s’aiddes soutient et finance toute action d’accom...,,"128, Rue de la Croix Nivert, Quartier de Javel, Paris 15e Arrondissement, Paris, Île-de-France, France métropolitaine, 75015, France","(48.8419446, 2.2930993, 0.0)",48.8419446,2.2930993,0.0
90,samusocial international,2802,7.848739495798319,protection,,35 avenue courteline 75012 paris,, contact@samu-social-international.com  ,http://www.samu-social-international.com,,fort de la conviction que la grande exclusion est un problème que connaissent toutes les grandes ...,,"35, Avenue Courteline, Quartier du Bel-Air, Paris 12e Arrondissement, Paris, Île-de-France, France métropolitaine, 75012, France","(48.8440589, 2.4151444, 0.0)",48.8440589,2.4151444,0.0
91,sauveteurs sans frontières,11295,31.638655462184875,humanitarian ,,6 rue villeboismareuil 75017 paris france,  33 09 84 04 54 11 33 09 84 04 54 11 , beatrice.t@sauveteurs.org  ,http://www.sauveteurs.org/,,sauveteurs sans frontières est une association fondée en 2000 qui a pour mission de porter assist...,,,,,,
92,scouts et guides de france,92448,258.9579831932773,education,,65 rue de la glacière 75013 paris,  01 44 52 37 3701 44 52 37 37  international@sgdf.fr  http://www.sgdf.fr ,international@sgdf.fr  ,http://www.sgdf.fr,,acteurs locaux dans près de 1 000 villes et villages de france les plus de 17 000 responsables b...,,"65, Rue de la Glacière, Quartier de la Maison-Blanche, Paris 13e Arrondissement, Paris, Île-de-France, France métropolitaine, 75013, France","(48.831307, 2.3444094, 0.0)",48.831307,2.3444094,0.0
93,secours catholique  caritas france,42878,120.10644257703082,humanitarian ,,106 rue du bac 75007 paris france,  01 45 49 73 0001 45 49 73 00  dir.internationale@secours-catholique.org  http://www.secours-catholique.org ,dir.internationale@secours-catholique.org  ,http://www.secours-catholique.org,,fondé en 1946 le secours catholique-caritas france est une association reconnue d’utilité publiq...,,"Délégation Catholique pour la Coopération, 106, Rue du Bac, Quartier Saint-Thomas-d'Aquin, Paris 7e Arrondissement, Paris, Île-de-France, France métropolitaine, 75007, France","(48.8534158, 2.3236654, 0.0)",48.8534158,2.3236654,0.0
94,secours populaire français,117562,329.3053221288515,protection,,9/11 rue froissart 75140 paris france,  01 44 78 21 0001 44 78 21 00  info@secourspopulaire.fr  http://www.secourspopulaire.fr ,info@secourspopulaire.fr ,http://www.secourspopulaire.fr,,statut : association de loi 1901 créée en 1945 et reconnue d’utilité publique par décret en 198...,,"Rue Froissart, Quartier des Enfants-Rouges, Paris 3e Arrondissement, Paris, Île-de-France, France métropolitaine, 75003, France","(48.8617356, 2.365364, 0.0)",48.8617356,2.365364,0.0
95,sherpa,9879,27.672268907563026,human rights democracy and governance,,22 rue de milan 75009 paris france,  01 42 21 33 2501 42 21 33 25  communication@asso-sherpa.org  http://www.asso-sherpa.org ,communication@asso-sherpa.org ,http://www.asso-sherpa.org,,a l’aube du 21e siècle tandis que les auteurs des crimes de guerre et crimes contre l’humanité a...,,"22, Rue de Milan, Quartier Saint-Georges, Paris 9e Arrondissement, Paris, Île-de-France, France métropolitaine, 75009, France","(48.8788185, 2.3274382, 0.0)",48.8788185,2.3274382,0.0
96,sidaction,82986,232.45378151260505,health,,228 rue du faubourg saintmartin 75010 paris,  33 01 53 26 45 5533 01 53 26 45 55 ,sidaction@sidaction.org  ,http://www.sidaction.org,,sidaction a pour but le développement de la lutte contre le sida par le soutien à des programmes ...,,,,,,
97,sol,6397,17.9187675070028,economic recovery and development,,20 rue marguerite de rochechouart 75009 paris france,  33 01 48 78 33 263301 48 78 33 26 ,contact@solidarite.asso.fr  ,http://www.sol-asso.fr,,sol alternatives agroécologiques et solidaires créée en 1980 sol est une organisation de solida...,,"20, Rue Marguerite de Rochechouart, Quartier de Rochechouart, Paris 9e Arrondissement, Paris, Île-de-France, France métropolitaine, 75009, France","(48.8776263, 2.3448151, 0.0)",48.8776263,2.3448151,0.0
98,solidarité laïque,12125,33.963585434173666,education,,22 rue corvisart 75013 paris,  01 45 35 13 1301 45 35 13 13  01 45 35 47 47  ,contact@solidarite-laique.org  ,http://www.solidarite-laique.org/,,depuis 1956 solidarité laïque lutte contre les exclusions et améliore l’accès de toutes et tous ...,,"22, Rue Corvisart, Quartier de Croulebarbe, Paris 13e Arrondissement, Paris, Île-de-France, France métropolitaine, 75013, France","(48.8329388, 2.3467669, 0.0)",48.8329388,2.3467669,0.0
99,solidarité sida,15872,44.4593837535014,protection,,16 avenue parmentier 75011 paris,  01 53 10 22 2201 53 10 22 22  33 01 53 10 22 20  ,info@solidarite-sida.org ,http://www.solidarite-sida.org,,a la fois acteur de prévention organisateur d’événements et partenaire d’associations communauta...,,"Avenue Parmentier, Quartier Saint-Ambroise, Paris 11e Arrondissement, Paris, Île-de-France, France métropolitaine, 75011, France","(48.8611455, 2.3778135, 0.0)",48.8611455,2.3778135,0.0
100,solthis  solidarité thérapeutique et initiatives pour la santé,3130,8.767507002801121,health,,58 a rue du dessous des berges 75013 paris,  33 01 81 70 17 9733 01 81 70 17 97  , contact@solthis.org  ,http://www.solthis.org,,solthis a pour objectif de renforcer les systèmes de santé des pays où elle intervient pour leur...,,"Rue du Dessous des Berges, Quartier de la Gare, Paris 13e Arrondissement, Paris, Île-de-France, France métropolitaine, 75013, France","(48.8291493, 2.372315, 0.0)",48.8291493,2.372315,0.0
101,sortir du colonialisme,10068,28.201680672268907,human rights democracy and governance,,21 rue voltaire  75011 paris france,  07 86 10 95 3007 86 10 95 30  ,jzl2805@yahoo.fr  ,http://www.anticolonial.net,,promouvoir les valeurs de l’anticolonialisme de la solidarité internationale de l’antiracisme ...,,"21, Rue Voltaire, Quartier Sainte-Marguerite, Paris 11e Arrondissement, Paris, Île-de-France, France métropolitaine, 75011, France","(48.8526381, 2.391742, 0.0)",48.8526381,2.391742,0.0
102,sos villages d’enfants,46286,129.65266106442576,protection,,6 cité monthiers 75 009 paris france,  33 01 55 07 25 2533 01 55 07 25 25  33 01 49 95 02 85 , contact@sosve.org  ,http://www.sosve.org/,,sos villages d’enfants france est une association indépendante apolitique et non confessionnelle...,,"6, Cité Monthiers, Quartier Saint-Georges, Paris 9e Arrondissement, Paris, Île-de-France, France métropolitaine, 75009, France","(48.8809299, 2.3275956, 0.0)",48.8809299,2.3275956,0.0
103,survival international france sif,310137,868.7310924369748,human rights democracy and governance,,18 rue ernest et henri rousselle  75013 paris france,  01 42 41 47 6201 42 41 47 62  , info@survivalfrance.org ,http://www.survivalfrance.org,,organisation mondiale de soutien aux peuples indigènes survival défend leur volonté de décider d...,,"18, Rue Ernest et Henri Rousselle, Quartier de la Maison-Blanche, Paris 13e Arrondissement, Paris, Île-de-France, France métropolitaine, 75013, France","(48.8254068, 2.3541752, 0.0)",48.8254068,2.3541752,0.0
104,transparency international france,12878,36.07282913165266,human rights democracy and governance,,14 passage dubail 75010 paris france,  01 84 16 95 6501 84 16 95 65  ,contact@transparency-france.org,http://www.transparency-france.org,,créée en 1995 et présidée depuis 2003 par daniel lebègue ancien directeur du trésor transparenc...,,"Centre de recherche et d'Information pour le Développement, 14, Passage Dubail, Quartier de la Porte-Saint-Martin, Paris 10e Arrondissement, Paris, Île-de-France, France métropolitaine, 75010, France","(48.8737094, 2.359693, 0.0)",48.8737094,2.359693,0.0
105,unicef,441195,1235.8403361344538,health,,3 rue duguaytrouin 75282 paris france, 09 69 36 84 68 09 69 36 84 68  ,contact@unicef.fr  ,http://www.unicef.fr,,les enfants sont le présent et l’avenir du monde. parce qu’ils ont besoin aujourd’hui d’être p...,,,,,,
106,union des associations burkinabé de france,1317,3.689075630252101,economic recovery and development,,181 avenue daumesnil 75012 paris france,  06 89 41 73 6606 89 41 73 66  , uabfrance@yahoo.fr  ,http://uabf.net/,,l’union des associations burkinabé de france u.a.b.f. convie toutes les associations ong et p...,,"181, Avenue Daumesnil, Quartier des Quinze-Vingts, Paris 12e Arrondissement, Paris, Île-de-France, France métropolitaine, 75012, France","(48.8406306, 2.392475, 0.0)",48.8406306,2.392475,0.0
107,union nationale des maisons familiales rurales d’education et d’orientation,13537,37.9187675070028,education,,58 rue notredame de lorette 75009 paris,  01 44 91 86 8601 44 91 86 86  01 44 91 95 45  ,unmfreo@mfr.asso.fr ,http://www.mfr.asso.fr,,a côté de leurs actions de formation et de développement en france le mouvement des maisons fami...,,,,,,
108,union peuple et culture pec,2454,6.873949579831932,education,,108 rue saintmaur 75011 paris france ,  01 49 29 42 8001 49 29 42 80  ,union@peuple-et-culture.org  ,http://www.peuple-et-culture.org,,l’union peuple et culture contribue à l’avènement d’un monde juste et solidaire d’une société d’...,,,,,,
109,acerrussie,472,1.3221288515406162,humanitarian,,91 rue olivier de serres 75015 paris france,  01 42 50 53 66  ,https://www.acer-mjo.org/fr/contact ,https://www.acer-mjo.org/fr/acer-russie,,acer-russie est une association d'aide humanitaire et sociale qui soutient des initiatives locales d’aide...,,"91, Rue Olivier de Serres, Quartier Saint-Lambert, Paris 15e Arrondissement, Paris, Île-de-France, France métropolitaine, 75015, France","(48.832199, 2.2935776, 0.0)",48.832199,2.2935776,0.0
110,act exchange,352,0.9859943977591037,economic recovery and development,,1a place des orphelins strasbourg france,06 44 64 22 22  ,contact@act.world  ,https://act.world,,l’association pour la culture et l’échange touristique act est une organisation à but non lucratif basée...,,"Place des Orphelins, Krutenau, Strasbourg, Bas-Rhin, Grand Est, France métropolitaine, 67065, France","(48.5785358, 7.7539289, 0.0)",48.5785358,7.7539289,0.0
111,acting for life,1685,4.719887955182073,economic recovery and development,,40 avenue de l'europe 93350 le bourget aeroport france,01 49 34 83 13  , contact@acting-for-life.org  ,https://acting-for-life.org/,,acting for life est une organisation française de solidarité internationale fondée en 1973 qui œuvre pour...,,,,,,
112,action autonomie avenir,123,0.3445378151260504,protection,,6 rue victor hugo 95100 argenteuil,01 34 10 34 04  ,,http://aaa-asso.fr/,,aaa est une association d’aide au développement aujourd’hui active au népal et au maroc...,,"6, Rue Victor Hugo, Ermont, Argenteuil, Val-d'Oise, Île-de-France, France métropolitaine, 95120, France","(48.987312349999996, 2.2586892679924215, 0.0)",48.987312349999996,2.2586892679924215,0.0
113,action contre la faim france,284460,796.8067226890756,humanitarian,,14 bd de douaumont 75017 paris france,01 70 84 70 84  ,https://www.actioncontrelafaim.org/contactez-nous/  ,https://www.actioncontrelafaim.org/,,créée en 1979 notre association loi 1901 est une organisation non-gouvernementale de solidarité...,,"14, Boulevard de Douaumont, Quartier des Batignolles, Paris 17e Arrondissement, Paris, Île-de-France, France métropolitaine, 75017, France","(48.8960324, 2.3077462, 0.0)",48.8960324,2.3077462,0.0
114,afal,1065,2.9831932773109244,education,,1 chemin de la laurina 33460 labarde france,01 74 64 44 73  ,afalassociation@gmail.com  ,http://www.afalassociation.com/,,association loi 1901 afal est l'union internationale d’associations et d’ong à vocation sectorielle ou...,,"Chemin de la Laurina, Clos de Gassion, Labarde, Lesparre-Médoc, Nouvelle-Aquitaine, France métropolitaine, 33460, France","(45.0227718, -0.6403062, 0.0)",45.0227718,-0.6403062,0.0
115,afdi  agriculteurs francais et developpment,3338,9.35014005602241,economic recovery and development,,11 rue de la baume 75008 paris france,01 42 89 58 16  ,,https://www.afdi-opa.org/,,grâce aux professionnels de l'agriculture engagés à ses côtés afdi soutient les agricultures familiales...,,"11, Rue de la Baume, Quartier de l'Europe, Paris 8e Arrondissement, Paris, Île-de-France, France métropolitaine, 75008, France","(48.8745642, 2.3116834, 0.0)",48.8745642,2.3116834,0.0
116,afea,392,1.0980392156862746,education,,4 rue des irlandais 75005 paris,,,,,,,"4, Rue des Irlandais, Quartier du Val-de-Grâce, Paris 5e Arrondissement, Paris, Île-de-France, France métropolitaine, 75005, France","(48.8444737, 2.3462045, 0.0)",48.8444737,2.3462045,0.0
117,afps  association france palenstine solidarite,21413,59.98039215686274,human rights democracy and governance,,21 ter rue voltaire 75011 paris france,01 43 72 15 79  , afps@france-palestine.org,https://www.france-palestine.org/,,l’association france palestine solidarité afps rassemble des personnes attachées au droit des peuples...,,"Rue Voltaire, Quartier Sainte-Marguerite, Paris 11e Arrondissement, Paris, Île-de-France, France métropolitaine, 75011, France","(48.8524844, 2.3913929, 0.0)",48.8524844,2.3913929,0.0
118,afrique verte international,3407,9.543417366946779,economic recovery and development,,66  72 rue marceau 93100 montreuil france,01 42 87 06 67  ,contact@afriqueverte.org,http://www.afriqueverte.org/,,avi est une organisation qui regroupe cinq membres intervenant dans quatre pays en afrique de l’ouest...,,"Rue Marceau, Bobillot, Montreuil, Bobigny, Seine-Saint-Denis, Île-de-France, France métropolitaine, 93100, France","(48.8546636, 2.4258991, 0.0)",48.8546636,2.4258991,0.0
119,agir ensemble pour les droits humains,3784,10.599439775910364,human rights democracy and governance,,16 av berthelot 69007 lyon france,04 37 37 10 11  , g.guichon@aedh.org   ,http://agir-ensemble-droits-humains.org/en/__trashed-2/,,notre vocation = s’allier avec les acteurs.rices de la société civile engagé.e.s sur leurs terrains dans la lutte...,,"16, Avenue Berthelot, Chevreul, Lyon 7e Arrondissement, Lyon, Métropole de Lyon, Circonscription départementale du Rhône, Auvergne-Rhône-Alpes, France métropolitaine, 69007, France","(45.7469182, 4.8361927, 0.0)",45.7469182,4.8361927,0.0
120,agrisud international,3740,10.476190476190476,economic recovery and development,,7 av du maréchal foch 33500 libourne france,05 57 25 17 06  ,http://www.agrisud.org/contact/  ,http://www.agrisud.org/fr/,,la petite ong d'une grande cause: permettre a des communautes humaines des pays du sud...,,"7, Avenue du Maréchal Foch, Centre-Ville, Château La Ganne, Libourne, Nouvelle-Aquitaine, France métropolitaine, 33500, France","(44.9215353, -0.24153920653409092, 0.0)",44.9215353,-0.24153920653409092,0.0
121,aide odonlogique internationale  aoi,1446,4.050420168067227,health,,1 rue maurice arnoux 92120 montrouge,01 57 63 99 62  ,contact@aoi-fr.org ,https://www.aoi-fr.org/,,aoi est une ong de développement qui contribue à l'amélioration de la santé orale. ,,"Faculté de Chirurgie Dentaire (Université de Paris), 1, Rue Maurice Arnoux, Quartier du Petit-Montrouge, Paris 14e Arrondissement, Quartier Portes de Montrouge, Montrouge, Antony, Hauts-de-Seine, Île-de-France, France métropolitaine, 92120, France","(48.82136145, 2.314645505352641, 0.0)",48.82136145,2.314645505352641,0.0
122,aides,70373,197.1232492997199,health,,36 rue dussoubs 75002 paris france,08 05 16 00 11 , https://www.aides.org/nous-contacter ,https://www.aides.org/,,aides est créée en septembre 1984 par le sociologue daniel defert à la suite du décès de son compagnon...,Multiple Locations across France,"36, Rue Dussoubs, Quartier de Bonne-Nouvelle, Paris 2e Arrondissement, Paris, Île-de-France, France métropolitaine, 75002, France","(48.8665789, 2.3493159, 0.0)",48.8665789,2.3493159,0.0
123,association of logical democracy agencies alda,10739,30.0812324929972,human rights democracy and governance,,1 avenue de l'europe 67000 strasbourg france,03 90 21 45 93  ,aldastrasbourg@alda-europe.eu  ,https://www.alda-europe.eu/,,l'alda - association européenne pour la démocratie locale est une association de droit français dédiée...,,"Totoro, 1, Avenue de l'Europe, Espace Européen de l'Entreprise, Schiltigheim, Strasbourg, Bas-Rhin, Grand Est, France métropolitaine, 67300, France","(48.6098846, 7.7125884, 0.0)",48.6098846,7.7125884,0.0
124,alima,23830,66.75070028011204,humanitarian,,15 rue des immeubles industriels 75011 paris,01 40 33 95 19  , office@alima.ngo  ,https://alima.ngo/,,l’histoire d’alima commence en 2009 au niger. alors que l’ensemble du corps médical observe un pic...,,"15, Rue des Immeubles Industriels, Quartier Sainte-Marguerite, Paris 11e Arrondissement, Paris, Île-de-France, France métropolitaine, 75011, France","(48.850025, 2.3924827, 0.0)",48.850025,2.3924827,0.0
125,alliance francaise paris iledefrance,106476,298.25210084033614,education,,101 bd raspail 75006 paris france,01 42 84 90 00  ,info@alliancefr.org ,https://www.alliancefr.org/,,l'alliance française est une organisation internationale qui vise à promouvoir l'apprentissage et...,,"Alliance française, 101, Boulevard Raspail, Quartier du Montparnasse, Paris 14e Arrondissement, Paris, Île-de-France, France métropolitaine, 75270, France","(48.84645535, 2.328989953365583, 0.0)",48.84645535,2.328989953365583,0.0
126,altersante,90,0.25210084033613445,health,,centre médical de bligny 91640 briissousforges,01 69 26 37 37  ,http://www.altersante.org/altersante/contact.html  ,http://www.altersante.org/altersante/,,des médecins et spécialistes de l’aide humanitaire ont décidé de s’unir afin de prévenir et traiter les maladies...,,,,,,
127,amnesty france peine de mort,2311,6.473389355742297,human rights democracy and governance,,76 boulevard de la villette  75940 paris cedex 19,01 53 38 65 65 ,01 53 38 65 65  no email  https://www.amnesty.fr/peine-de-mort-et-torture,https://www.amnesty.fr/peine-de-mort-et-torture,,on dit souvent “l’important c’est de participer”. mais lorsqu'il s’agit de droits humains l’important c’est aussi...,,,,,,
128,assistance medicale toit du monde amtm,2397,6.714285714285714,health,,81 av du maréchal joffre 92000 nanterre france,01 47 24 78 59  ,contact@amtm.org  ,https://www.amtm.org/,,amtm aide les communautés en inde et au népal en déployant son action selon trois axes : la santé et...,,"81, Avenue du Maréchal Joffre, Quartier du Plateau - Mont-Valérien, Nanterre, Arrondissement de Nanterre, Hauts-de-Seine, Île-de-France, France métropolitaine, 92000, France","(48.8840943, 2.1927247, 0.0)",48.8840943,2.1927247,0.0
129,apdra pisciculture paysanne,4721,13.224089635854341,health,,9 av de france 91300 massy france,01 69 20 38 49  ,contact@apdra.org  ,http://www.apdra.org/index.php/fr-fr/,,née en 1996 l'association apdra pisciculture paysanne soutient la pisciculture dans les pays du sud et...,,"9, Avenue de France, Les Peupliers, Massy, Palaiseau, Essonne, Île-de-France, France métropolitaine, 91300, France","(48.7327481, 2.2909895, 0.0)",48.7327481,2.2909895,0.0
130,assemblee parlementaire de la francophonie apf,7535,21.106442577030812,education,,233 bd saintgermain 75007 paris france,01 40 63 91 60  , http://www.apf.francophonie.org/contact.html  , http://www.apf.francophonie.org/ ,,l’assemblée parlementaire de la francophonie est un lieu de débats de propositions et d’échanges...,,,,,,
131,apprentis d'auteuil,65017,182.1204481792717,education,,40 rue jean de la fontaine 75016 paris,01 44 14 75 75  , https://www.apprentis-auteuil.org/nous-contacter.html  ,https://www.apprentis-auteuil.org/,,fondation catholique reconnue d’utilité publique apprentis d’auteuil s’engage et agit auprès des jeunes et...,,"40, Rue Jean de La Fontaine, Quartier d'Auteuil, Paris 16e Arrondissement, Paris, Île-de-France, France métropolitaine, 75016, France","(48.8510809, 2.2720294, 0.0)",48.8510809,2.2720294,0.0
132,aquassistance,1169,3.2745098039215685,humanitarian,,183 av du 18 juin 1940 92500 rueilmalmaison france,01 46 25 38 76 ,contact@aquassistance.org,https://www.aquassistance.org/page/242390-accueil,,créée en 1994 aquassistance est l'association de solidarité internationale des collaborateurs actifs et...,,,,,,
133,architectes de l'urgence,11301,31.65546218487395,economic recovery and development,,73 boulevard du cange 80000 amiens france,03 22 80 00 60 , info@archi-urgent.com  ,https://www.archi-urgent.com/ ,,depuis 2001 à travers ses programmes d’action dans le monde entier la fondation architectes de l’urgence...,Central logistics but have a headquarters in Paris,"Boulevard du Cange, Amiens, Somme, Hauts-de-France, France métropolitaine, 80000, France","(49.8959466, 2.3061165, 0.0)",49.8959466,2.3061165,0.0
134,architecture et developpement,1430,4.0056022408963585,economic recovery and development,,2 rue de la providence 75013 paris france,,,https://www.archidev.org/?lang=fr,,ad est une association de solidarité internationale fondée en 1997 qui conçoit et réalise des projets...,,"2, Rue de la Providence, Quartier de la Maison-Blanche, Paris 13e Arrondissement, Paris, Île-de-France, France métropolitaine, 75013, France","(48.8252395, 2.3494719, 0.0)",48.8252395,2.3494719,0.0
135,artisans du monde,13920,38.99159663865546,economic recovery and development,,14 rue de la beaune 93181 montreuil france,01 83 62 83 93  , https://www.artisansdumonde.org/contact/contactez-nous,https://www.artisansdumonde.org/,,depuis 1974 artisans du monde défend les droits humains la justice sociale et la solidarité internationale...,,"14, Rue de la Beaune, Centre-ville, Montreuil, Bobigny, Seine-Saint-Denis, Île-de-France, France métropolitaine, 93100, France","(48.8618309, 2.4359251, 0.0)",48.8618309,2.4359251,0.0
136,asdifle,4175,11.694677871148459,education,,101 bd raspail 75006 paris france,,https://asdifle.com/contact/,https://asdifle.com/,,l’association de didactique du français langue étrangère asdifle créée au milieu des années 1980...,,"Alliance française, 101, Boulevard Raspail, Quartier du Montparnasse, Paris 14e Arrondissement, Paris, Île-de-France, France métropolitaine, 75270, France","(48.84645535, 2.328989953365583, 0.0)",48.84645535,2.328989953365583,0.0
137,asi  actions de solidarite internationale,1767,4.949579831932773,protection,,5 rue lebon 75017 paris france,242 06 688 5964  ,contact@asi-france.org  ,https://www.asi-france.org/,,asi travaille sur le long terme par le soutien d’initiatives locales c’est une ong de développement.,,"5, Rue Lebon, Quartier des Ternes, Paris 17e Arrondissement, Paris, Île-de-France, France métropolitaine, 75017, France","(48.8806784, 2.2923066, 0.0)",48.8806784,2.2923066,0.0
138,asi  association de la sommellerie internationale,27833,77.96358543417367,education,,97 boulevard haussmann 75008 paris france,, info@asi.info  ,https://www.asi.info/,,l’association de la sommellerie internationale asi est une organisation à but non-lucratif fondée à reims...,,"97, Boulevard Haussmann, Quartier de l'Europe, Paris 8e Arrondissement, Paris, Île-de-France, France métropolitaine, 75008, France","(48.8748202, 2.318194, 0.0)",48.8748202,2.318194,0.0
139,assen association de soutien aux enfants,11893,33.31372549019608,protection ,,181 av daumesnil 75012 paris france,,https://assen-asso.org/contacts/  ,https://assen-asso.org/,,l’association de soutien aux enfants assen a été créée le 5 novembre 2010 par des jeunes étudiants...,,"181, Avenue Daumesnil, Quartier des Quinze-Vingts, Paris 12e Arrondissement, Paris, Île-de-France, France métropolitaine, 75012, France","(48.8406306, 2.392475, 0.0)",48.8406306,2.392475,0.0
140,association adric,575,1.6106442577030813,education,,7 rue du jura 75013 paris france,01 43 36 89 23  , adric@adric.eu ,https://www.adric.eu/,,créée en 2003 l’agence de développement des relations interculturelles pour la citoyenneté adric...,,"7, Rue du Jura, Quartier de la Salpêtrière, Paris 13e Arrondissement, Paris, Île-de-France, France métropolitaine, 75013, France","(48.8375471, 2.356103, 0.0)",48.8375471,2.356103,0.0
141,association henri capitant,2303,6.450980392156863,education,,12 pl du panthéon 75005 paris france,01 43 54 43 17  ,contact@henricapitant.org  ,https://www.henricapitant.org/,,l’association henri capitant fut fondée en 1935 sous l’autorité de henri capitant professeur à la faculté de...,,"Université Paris I Panthéon-Sorbonne, 12, Place du Panthéon, Quartier de la Sorbonne, Paris 5e Arrondissement, Paris, Île-de-France, France métropolitaine, 75005, France","(48.84708575, 2.344087797715906, 0.0)",48.84708575,2.344087797715906,0.0
142,atd fourth world,3308,9.266106442577032,human rights democracy and governance,,12 rue pasteur 95480 pierrelaye france,,,,,,,"Rue Pasteur, Résidence du Petit Bois, Pierrelaye, Argenteuil, Val-d'Oise, Île-de-France, France métropolitaine, 95480, France","(49.0202506, 2.1500935, 0.0)",49.0202506,2.1500935,0.0
143,attac france,153634,430.3473389355742,human rights democracy and governance,,21ter rue voltaire 75011 paris france,,,,,,,"Rue Voltaire, Quartier Sainte-Marguerite, Paris 11e Arrondissement, Paris, Île-de-France, France métropolitaine, 75011, France","(48.8524844, 2.3913929, 0.0)",48.8524844,2.3913929,0.0
145,auxilaires du sacerdoce,170,0.47619047619047616,religious,,57 rue lemercier 75017 paris france,,,,,,,"57, Rue Lemercier, Quartier des Batignolles, Paris 17e Arrondissement, Paris, Île-de-France, France métropolitaine, 75017, France","(48.8875833, 2.32188, 0.0)",48.8875833,2.32188,0.0
146,avocats sans frontieres france,7825,21.9187675070028,human rights democracy and governance,,8 rue du prieuré 31000 toulouse france,,,,,,,"8, Rue du Prieuré, Place Occitane, Capitole, Toulouse Centre, Toulouse, Haute-Garonne, Occitanie, France métropolitaine, 31000, France","(43.6016272, 1.4417115, 0.0)",43.6016272,1.4417115,0.0
147,avsfagronomes et veterinaires sans frontieres,47255,132.36694677871148,economic recovery and development,,14 av berthelot 69007 lyon france,,,,,,,"14, Avenue Berthelot, Chevreul, Lyon 7e Arrondissement, Lyon, Métropole de Lyon, Circonscription départementale du Rhône, Auvergne-Rhône-Alpes, France métropolitaine, 69007, France","(45.7470377, 4.8357977, 0.0)",45.7470377,4.8357977,0.0
148,bewelcome,7486,20.969187675070028,education,,19 rue de paris 35500 vitre france,,,,,,,"19, Rue de Paris, Hospice St Nicolas, Vitré, Fougères-Vitré, Ille-et-Vilaine, Bretagne, France métropolitaine, 35500, France","(48.1245906, -1.2073464, 0.0)",48.1245906,-1.2073464,0.0
149,biacthevoice of oecd business,48,0.13445378151260504,economic recovery and development,,13/15 chau de la muette 75016 paris france,,,,,,,,,,,
150,bibliotheques sans frontieres,148833,416.89915966386553,education,,69 rue armand carrel 75019 paris france,,,,,,,"Les Marmites Volantes, 69, Rue Armand Carrel, Quartier du Combat, Paris 19e Arrondissement, Paris, Île-de-France, France métropolitaine, 75019, France","(48.8827997, 2.3733397, 0.0)",48.8827997,2.3733397,0.0
151,bice  burea international catholique de l'enfance,6614,18.526610644257705,protection,,70 boulevard de magenta  75010 paris,,,,,,,"70, Boulevard de Magenta, Quartier de la Porte-Saint-Martin, Paris 10e Arrondissement, Paris, Île-de-France, France métropolitaine, 75010, France","(48.8753491, 2.3571384, 0.0)",48.8753491,2.3571384,0.0
152,biodeversa,1787,5.0056022408963585,environment,,50 av daumesnil 75012 paris france,,,,,,,"50, Avenue Daumesnil, Quartier des Quinze-Vingts, Paris 12e Arrondissement, Paris, Île-de-France, France métropolitaine, 75012, France","(48.8456409, 2.3784003, 0.0)",48.8456409,2.3784003,0.0
153,cafebabel,13631,38.182072829131656,education,,226 rue saintdenis 75002 paris france,,,,,,,,,,,
154,ccfdterre solidaire,175226,490.8291316526611,human rights democracy and governance,,7 rue du frout 29000 quimper france,,,,,,,"7, Rue du Frout, La Tourelle, Quimper, Finistère, Bretagne, France métropolitaine, 29000, France","(47.9959315, -4.1003447, 0.0)",47.9959315,-4.1003447,0.0
155,centre d'etudes europeennes et de politique comparee de science po,1531,4.288515406162465,education,,28 rue des saintspères 75007 paris france,,,,,,,,,,,
156,centre de documentation tiers monde,69,0.19327731092436976,education,,27 bd louis blanc 34000 montpellier france,,,,,,,"27, Boulevard Louis Blanc, Les Beaux-Arts, Centre, Montpellier, Hérault, Occitanie, France métropolitaine, 34000, France","(43.6144863, 3.8802663, 0.0)",43.6144863,3.8802663,0.0
157,centre humanitaire des metiers de la pharmaciechmp,28,0.0784313725490196,health,,4 voie militaire des gravanches 63100 clermontferrand france,,,,,,,,,,,
158,centre international de credit mutuel,75,0.21008403361344538,economic recovery and development,,88 rue cardinet 75847 paris cedex 17,,,,,,,,,,,
159,cerale,98,0.27450980392156865,education,,79 av de la république 75011 paris france,,,,,,,"79, Avenue de la République, Quartier de la Folie-Méricourt, Paris 11e Arrondissement, Paris, Île-de-France, France métropolitaine, 75011, France","(48.8642945, 2.3804192, 0.0)",48.8642945,2.3804192,0.0
161,cfdt,24514,68.66666666666667,professional society,,49 av dufau 64000 pau france,,,,,,,"Avenue Dufau, Dufau-Tourasse, Pau, Pyrénées-Atlantiques, Nouvelle-Aquitaine, France métropolitaine, 64000, France","(43.3046592, -0.3681633, 0.0)",43.3046592,-0.3681633,0.0
162,chambre de commerce franco arabe,529,1.4817927170868348,economic recovery and development,,250 bis bd saintgermain 75007 paris france,,,,,,,,,,,
163,children's rights  humanium,96727,270.9439775910364,human rights democracy and governance,,5 rue de l’automne 68510 sierentz france,,,,,,,"5, Rue de l'Automne, Sierentz, Mulhouse, Haut-Rhin, Grand Est, France métropolitaine, 68510, France","(47.6603739, 7.4531226, 0.0)",47.6603739,7.4531226,0.0
164,cicp,562,1.5742296918767507,human rights democracy and governance,,21ter rue voltaire 75011 paris france,,,,,,,"Rue Voltaire, Quartier Sainte-Marguerite, Paris 11e Arrondissement, Paris, Île-de-France, France métropolitaine, 75011, France","(48.8524844, 2.3913929, 0.0)",48.8524844,2.3913929,0.0
165,cid centre interculturel du developpment,537,1.504201680672269,education,,8 cité de l'ameublement 75011 paris france,,,,,,,"8, Cité de l'Ameublement, Quartier Sainte-Marguerite, Paris 11e Arrondissement, Paris, Île-de-France, France métropolitaine, 75011, France","(48.8511702, 2.3857037, 0.0)",48.8511702,2.3857037,0.0
166,ciemi,296,0.8291316526610645,education,,46 rue de montreuil 75011 paris france,,,,,,,"Mission Catholique Italienne, 46, Rue de Montreuil, Quartier Sainte-Marguerite, Paris 11e Arrondissement, Paris, Île-de-France, France métropolitaine, 75011, France","(48.850155, 2.3884949, 0.0)",48.850155,2.3884949,0.0
167,cigref,751,2.103641456582633,professional society,,21 av de messine 75008 paris france,,,,,,,"21, Avenue de Messine, Quartier de l'Europe, Paris 8e Arrondissement, Paris, Île-de-France, France métropolitaine, 75008, France","(48.8768551, 2.311613, 0.0)",48.8768551,2.311613,0.0
168,ciheam,4974,13.932773109243698,economic recovery and development,,via ceglie 9 70010 valenzano ba italie,,,,,,,,,,,
169,cioff france,4544,12.72829131652661,education,,le montel 63600 ambert france,,,,,,,"Le Montel, Grandval, Ambert, Puy-de-Dôme, Auvergne-Rhône-Alpes, France métropolitaine, 63890, France","(45.6131481, 3.6581522, 0.0)",45.6131481,3.6581522,0.0
170,citf commision internationale du theater francophone,1792,5.019607843137255,education,,182 rue sainthonoré 75001 paris,,,,,,,,,,,
171,codata,1283,3.5938375350140057,education,,5 rue auguste vacquerie 75016 paris france,,,,,,,"5, Rue Auguste Vacquerie, Quartier de Chaillot, Paris 16e Arrondissement, Paris, Île-de-France, France métropolitaine, 75116, France","(48.8708187, 2.2963325, 0.0)",48.8708187,2.2963325,0.0
172,colletif de parties civiles pour le rwanda cpcr,2513,7.03921568627451,human rights democracy and governance,,61 avenue jean jaurès 51100 reims,,,,,,,"61, Avenue Jean Jaurès, Secteur Sainte-Thérèse, Reims, Marne, Grand Est, France métropolitaine, 51100, France","(49.2591581, 4.0439714, 0.0)",49.2591581,4.0439714,0.0
173,college de paris afrique,5423,15.19047619047619,education,,15 rue montmartre 75001 paris france,,,,,,,"Le Cochon à l'Oreille, 15, Rue Montmartre, Quartier Les Halles, Paris 1er Arrondissement, Paris, Île-de-France, France métropolitaine, 75001, France","(48.8644516, 2.3451744, 0.0)",48.8644516,2.3451744,0.0
174,college des etudes juives,313,0.876750700280112,education,,6 bis rue michel ange 75016 paris,,,,,,,"Rue Michel-Ange, Quartier d'Auteuil, Paris 16e Arrondissement, Paris, Île-de-France, France métropolitaine, 75016, France","(48.8429159, 2.2599868, 0.0)",48.8429159,2.2599868,0.0
175,comite de cooperation aves le laos,792,2.2184873949579833,economic recovery and development,,0 rue rosenwald 75015 paris france,,,,,,,"Rue Rosenwald, Quartier Saint-Lambert, Paris 15e Arrondissement, Paris, Île-de-France, France métropolitaine, 75015, France","(48.833108, 2.3058573, 0.0)",48.833108,2.3058573,0.0
176,comite idaho france,16681,46.72549019607843,human rights democracy and governance,,26 rue de lappe 75011 paris france,,,,,,,"Bar à Nenette, 26, Rue de Lappe, Quartier de la Roquette, Paris 11e Arrondissement, Paris, Île-de-France, France métropolitaine, 75011, France","(48.853326, 2.3733565, 0.0)",48.853326,2.3733565,0.0
177,communautes catholiques francophones dans le monde,842,2.358543417366947,education,,58 avenue de breteuil 75007 paris france,,,,,,,"Avenue de Breteuil, Quartier de l'École Militaire, Paris 7e Arrondissement, Paris, Île-de-France, France métropolitaine, 75007, France","(48.8517067, 2.3125359, 0.0)",48.8517067,2.3125359,0.0
179,congregation notre dame de sion,463,1.2969187675070029,education,,69 rue notredame des champs 75006,,,,,,,,,,,
180,coordination pour l'afrique de demain cade,186,0.5210084033613446,environment,,5 rue des immeubles industriels 75011 paris france,,,,,,,"5, Rue des Immeubles Industriels, Quartier Sainte-Marguerite, Paris 11e Arrondissement, Paris, Île-de-France, France métropolitaine, 75011, France","(48.8493561, 2.3927206, 0.0)",48.8493561,2.3927206,0.0
181,cousteau,61517,172.31652661064425,environment,,40 rue des renaudes 75017 paris france,,,,,,,"40, Rue des Renaudes, Quartier des Ternes, Paris 17e Arrondissement, Paris, Île-de-France, France métropolitaine, 75017, France","(48.8809893, 2.2974877, 0.0)",48.8809893,2.2974877,0.0
182,cpie bocage de l'avesnois,1294,3.6246498599439776,environment,,1 chem des prés verquin 59570 gussignies france,,,,,,,,,,,
183,conseil representatif des associations noires cran,13262,37.148459383753504,human rights democracy and governance,,55 rue du château d’eau 75010 paris,,,,,,,"55, Rue du Château d'Eau, Quartier de la Porte-Saint-Martin, Paris 10e Arrondissement, Paris, Île-de-France, France métropolitaine, 75010, France","(48.8723591, 2.3555264, 0.0)",48.8723591,2.3555264,0.0
184,croixrouge francaise,561722,1573.450980392157,humanitarian,,98 rue didot 75694 paris cedex 14,,,,,,,,,,,
187,eau et vie,1953,5.470588235294118,economic recovery and development,,68 rue de coulmiers 44000 nantes france,,,,,,,"68, Rue de Coulmiers, Coulmiers - Jardin des Plantes, Malakoff - Saint-Donatien, Nantes, Loire-Atlantique, Pays de la Loire, France métropolitaine, 44000, France","(47.2249935, -1.539534, 0.0)",47.2249935,-1.539534,0.0
189,european blind union ebu,1637,4.5854341736694675,human rights democracy and governance,,6 rue gagergabillot 75015 paris france,,,,,,,,,,,
190,echoppe usa,171,0.4789915966386555,education,,02 bp 222 53 49022 angers cedex 02 france,,,,,,,,,,,
191,european council of jewish communities ecjc,1487,4.165266106442577,education,,38 rue de berri 75008 paris france,,,,,,,"38, Rue de Berri, Quartier du Faubourg-du-Roule, Paris 8e Arrondissement, Paris, Île-de-France, France métropolitaine, 75008, France","(48.8738967, 2.3070011, 0.0)",48.8738967,2.3070011,0.0
193,ecpm,8058,22.571428571428573,human rights democracy and governance,,62 bis ave parmentier 75011 paris france,,,,,,,,,,,
195,european grassroots antiracist movement egam,4573,12.80952380952381,human rights democracy and governance,,48 ter rue du faubourg saintdenis 75010 paris france,,,,,,,,,,,
196,ecole francaise d'extremeorient efeo,4140,11.596638655462185,education,,22 av du président wilson 75116 paris france,,,,,,,"22, Avenue du Président Wilson, Quartier de Chaillot, Paris 16e Arrondissement, Paris, Île-de-France, France métropolitaine, 75116, France","(48.8644818, 2.2922125, 0.0)",48.8644818,2.2922125,0.0
197,elles bougent,7400,20.72829131652661,education,,57 place de l'europe 92500 rueilmalmaison,,,,,,,,,,,
198,empowher institute,2228,6.240896358543417,human rights democracy and governance,,na,,,,,,,Namibia,"(-23.2335499, 17.3231107, 0.0)",-23.2335499,17.3231107,0.0
199,end fgm,7043,19.72829131652661,protection,,rue d'edimbourg 261050 ixelles belgium,,,,,,,"Rue d'Édimbourg - Edinburgstraat, Matongé, Ixelles - Elsene, Brussel-Hoofdstad - Bruxelles-Capitale, Région de Bruxelles-Capitale - Brussels Hoofdstedelijk Gewest, 1050, België / Belgique / Belgien","(50.8371293, 4.364166, 0.0)",50.8371293,4.364166,0.0
200,enfants du mekong,65410,183.22128851540617,education,,5 rue de la comète 92600 asnièressurseine france,,,,,,,,,,,
202,entrepreneurs du monde,18744,52.50420168067227,economic recovery and development,,14 pass dubail 75010 paris france,,,,,,,"Centre de recherche et d'Information pour le Développement, 14, Passage Dubail, Quartier de la Porte-Saint-Martin, Paris 10e Arrondissement, Paris, Île-de-France, France métropolitaine, 75010, France","(48.8737094, 2.359693, 0.0)",48.8737094,2.359693,0.0
203,epargne ethique,24507,68.6470588235294,economic recovery and development,,22 rue joubert 75009 paris ile de france,,,,,,,"22, Rue Joubert, Quartier de la Chaussée-d'Antin, Paris 9e Arrondissement, Paris, Île-de-France, France métropolitaine, 75009, France","(48.874711, 2.3298358, 0.0)",48.874711,2.3298358,0.0
205,european youth information and counselling agency eryica,6003,16.81512605042017,education,,87 rte de thionville 2611 hesperange luxembourg,,,,,,,"Route de Thionville, Alzingen, Hesperange, Canton Luxembourg, 5887, Lëtzebuerg","(49.5736536, 6.1590288, 0.0)",49.5736536,6.1590288,0.0
206,european school of haematology esh,4201,11.767507002801121,health,,1 avenue claude vellefaux 75010 paris france,,,,,,,"Avenue Claude Vellefaux, Quartier de l'Hôpital Saint-Louis, Paris 10e Arrondissement, Paris, Île-de-France, France métropolitaine, 75010, France","(48.8734011, 2.3701732, 0.0)",48.8734011,2.3701732,0.0
208,eunis,380,1.0644257703081232,education,,103 boulevard saintmichel 75005 paris france,,,,,,,,,,,
209,euromed feminist initiative,12594,35.27731092436975,human rightsdemocracy and governance,,104 rue de charenton 75012 paris france,,,,,,,"104, Rue de Charenton, Quartier de Bercy, Paris 12e Arrondissement, Paris, Île-de-France, France métropolitaine, 75012, France","(48.8474296, 2.3774482, 0.0)",48.8474296,2.3774482,0.0
212,european federation of geologists ,2907,8.142857142857142,environment,,rue jenner 13 1000 bruxelles belgique,,,,,,,"Rue Jenner - Jennerstraat, Bruxelles - Brussel, Ixelles - Elsene, Brussel-Hoofdstad - Bruxelles-Capitale, Région de Bruxelles-Capitale - Brussels Hoofdstedelijk Gewest, 1000, België / Belgique / Belgien","(50.8359303, 4.3787714, 0.0)",50.8359303,4.3787714,0.0
213,european financial management association,1341,3.7563025210084033,education,,10 boulevard haussmann 75009 paris france,,,,,,,"Qwant, 10, Boulevard Haussmann, Quartier du Faubourg-Montmartre, Paris 9e Arrondissement, Paris, Île-de-France, France métropolitaine, 75009, France","(48.8724229, 2.3382238, 0.0)",48.8724229,2.3382238,0.0
214,european forum for urban security efus,1522,4.2633053221288515,protection,,10 rue des montiboeufs 75020 paris france,,,,,,,"10, Rue des Montibœufs, Quartier Saint-Fargeau, Paris 20e Arrondissement, Paris, Île-de-France, France métropolitaine, 75020, France","(48.8664775, 2.4053811, 0.0)",48.8664775,2.4053811,0.0
215,european implementation network,414,1.1596638655462186,human rights democracy and governance,,20 av du neuhof 67100 strasbourg france,,,,,,,"Épicerie boucherie Matmour, 20, Avenue du Neuhof, Neudorf, Strasbourg, Bas-Rhin, Grand Est, France métropolitaine, 67100, France","(48.5553544, 7.7662541, 0.0)",48.5553544,7.7662541,0.0
216,european jewish congress,11732,32.86274509803921,human rights democracy and governance,,38 rue de berri 75008 paris france,,,,,,,"38, Rue de Berri, Quartier du Faubourg-du-Roule, Paris 8e Arrondissement, Paris, Île-de-France, France métropolitaine, 75008, France","(48.8738967, 2.3070011, 0.0)",48.8738967,2.3070011,0.0
217,european producers club,742,2.0784313725490198,education,,42 rue du faubourg du temple 75011 paris france,,,,,,,"Suan Siam, 42, Rue du Faubourg du Temple, Quartier de la Folie-Méricourt, Paris 11e Arrondissement, Paris, Île-de-France, France métropolitaine, 75011, France","(48.8692577, 2.3690106, 0.0)",48.8692577,2.3690106,0.0
218,european society of cardiology,254994,714.2689075630252,health,,2035 route des colles cs 80179 biot 06903 sophia antipolis cedex france,,,,,,,,,,,
219,european rare diseases organization eurodis,40873,114.49019607843137,health,,plateforme maladies rares 96 rue didot 75014 paris france,,,,,,,,,,,
220,euroscience,4483,12.557422969187675,education,,1 quai lezaymarnesia 67000 strasbourg  france,,,,,,,,,,,
221,fafce,1778,4.980392156862745,religious organization,,28 place st georges paris 75009 france,,,,,,,"Place Saint-Georges, Quartier Saint-Georges, Nouvelle Athènes, Paris, Île-de-France, France métropolitaine, 75009, France","(48.8783757, 2.3374412, 0.0)",48.8783757,2.3374412,0.0
222,fatf,24940,69.85994397759103,protection,,2 rue andré pascal 75775 paris cedex 16 france,,,,,,,,,,,
223,feebf,1148,3.215686274509804,religious organization,,47 rue de clichy 75009 paris france,,,,,,,"47, Rue de Clichy, Quartier Saint-Georges, Paris 9e Arrondissement, Paris, Île-de-France, France métropolitaine, 75009, France","(48.8803025, 2.3288409, 0.0)",48.8803025,2.3288409,0.0
225,fédération internationale des experts comptables et commissaires aux comptes francophones fidef,2017,5.649859943977591,professional society,,19 rue cognacq jay 75007 paris france,,,,,,,"19, Rue Cognacq-Jay, Quartier du Gros-Caillou, Paris 7e Arrondissement, Paris, Île-de-France, France métropolitaine, 75007, France","(48.86176, 2.3031012, 0.0)",48.86176,2.3031012,0.0
226,federation euromediterraneenne contre les disparitions forcees,1806,5.0588235294117645,human rights democracy and governance,,112 rue de charenton 75012 paris france,,,,,,,"112, Rue de Charenton, Quartier de Bercy, Paris 12e Arrondissement, Paris, Île-de-France, France métropolitaine, 75012, France","(48.8470293, 2.3780432, 0.0)",48.8470293,2.3780432,0.0
227,federation nationale de la libere pensee,3249,9.100840336134453,human rights democracy and governance,,10 rue des fossés saintjacques 75005 paris france,,,,,,,,,,,
228,international federation for human rights fidh,210879,590.6974789915967,human rights democracy and governance,,17 pass de la main d'or 75011 paris france,,,,,,,"17, Passage de la Main d'Or, Quartier Sainte-Marguerite, Paris 11e Arrondissement, Paris, Île-de-France, France métropolitaine, 75011, France","(48.8526699, 2.3782056, 0.0)",48.8526699,2.3782056,0.0
229,filles du saintespirt,845,2.3669467787114846,religious organization,,15 bd sebastopol 35101 rennes cedex 2 france,,,,,,,,,,,
230,fils de la charite,1425,3.991596638655462,religious organization,,22 rue de l'abbé derry 92130 issylesmoulineaux france,,,,,,,,,,,
231,fondation de france,70572,197.68067226890756,cso,,40 av hoche 75008 paris france,,,,,,,"40, Avenue Hoche, Quartier du Faubourg-du-Roule, Paris 8e Arrondissement, Paris, Île-de-France, France métropolitaine, 75008, France","(48.8755373, 2.2987971, 0.0)",48.8755373,2.2987971,0.0
232,fondation maison des sciences de l'homme,9628,26.969187675070028,education,,54 bd raspail 75006 paris france,,,,,,,"Maison des Sciences de l'Homme - MSH - EHESS, 54, Boulevard Raspail, Quartier du Montparnasse, Paris 14e Arrondissement, Paris, Île-de-France, France métropolitaine, 75006, France","(48.850231300000004, 2.326797041094853, 0.0)",48.850231300000004,2.326797041094853,0.0
233,fondation mfr monde,587,1.6442577030812324,education,,58 rue notre dame de lorette 75009 paris,,,,,,,"58, Rue Notre-Dame-de-Lorette, Quartier Saint-Georges, Paris 9e Arrondissement, Paris, Île-de-France, France métropolitaine, 75009, France","(48.8799925, 2.3357441, 0.0)",48.8799925,2.3357441,0.0
234,fondation napoleon,18243,51.10084033613445,education,,7 rue geoffroy saint hilaire 75005 paris france,,,,,,,"7, Rue Geoffroy Saint-Hilaire, Quartier du Jardin des Plantes, Paris 5e Arrondissement, Paris, Île-de-France, France métropolitaine, 75005, France","(48.8389365, 2.3567846, 0.0)",48.8389365,2.3567846,0.0
235,forum refugiescosi,6993,19.58823529411765,human rights democracy and governance,,3 bd richard lenoir 75011 paris france,,,,,,,"3, Boulevard Richard-Lenoir, Quartier de la Folie-Méricourt, Paris 11e Arrondissement, Paris, Île-de-France, France métropolitaine, 75011, France","(48.8546701, 2.3693933, 0.0)",48.8546701,2.3693933,0.0
237,france amerique latine,10547,29.54341736694678,education,,37 bd saintjacques 75014 paris france,,,,,,,,,,,
239,francodiff,2091,5.857142857142857,education,,marnela vallée chessy pl des passagers du vent 77700 chessy france,,,,,,,,,,,
240,francais du mondeadfe,15153,42.445378151260506,cso,,62 bd garibaldi 75015 paris france,,,,,,,"62, Boulevard Garibaldi, Quartier Necker, Paris 15e Arrondissement, Paris, Île-de-France, France métropolitaine, 75015, France","(48.8459763, 2.3075242, 0.0)",48.8459763,2.3075242,0.0
241,fraternite europe asie,87,0.24369747899159663,economic recovery and development,,17 rue du cardinal lemoine 75005 paris france,,,,,,,"17, Rue du Cardinal Lemoine, Quartier Saint-Victor, Paris 5e Arrondissement, Paris, Île-de-France, France métropolitaine, 75005, France","(48.8486135, 2.3537831, 0.0)",48.8486135,2.3537831,0.0
242,friendsinternational,24651,69.05042016806723,protection,,29 rue vaneau 75007 paris france,,,,,,,"29, Rue Vaneau, Quartier Saint-Thomas-d'Aquin, Paris 7e Arrondissement, Paris, Île-de-France, France métropolitaine, 75007, France","(48.8526752, 2.3191788, 0.0)",48.8526752,2.3191788,0.0
243,futuribles,3015,8.445378151260504,education,,47 rue de babylone 75007 paris france,,,,,,,"Coutume, 47, Rue de Babylone, Quartier Saint-Thomas-d'Aquin, Paris 7e Arrondissement, Paris, Île-de-France, France métropolitaine, 75007, France","(48.8516152, 2.3183721, 0.0)",48.8516152,2.3183721,0.0
244,genre en action,8962,25.103641456582633,human rights democracy and governance,,11 allée ausone 33607 pessac france,,,,,,,"Sciences Po Bordeaux, 11, Allée Ausone, Brivazac-Candau, Pessac, Bordeaux, Nouvelle-Aquitaine, France métropolitaine, 33607, France","(44.798599100000004, -0.6139021806866118, 0.0)",44.798599100000004,-0.6139021806866118,0.0
245,geres  acting for climate solidarity,2639,7.392156862745098,envirnoment,,2 cr maréchal foch 13400 aubagne france,,,,,,,,,,,
246,global ocean observing system,680,1.9047619047619047,environment,,7 pl de fontenoy 75352 paris france,,,,,,,"Place de Fontenoy, Quartier de l'École Militaire, Paris 7e Arrondissement, Paris, Île-de-France, France métropolitaine, 75007, France","(48.85121965, 2.306670824655578, 0.0)",48.85121965,2.306670824655578,0.0
247,greenpeace france,876230,2454.4257703081234,environment,,13 rue d'enghien 75010 paris france,,,,,,,"GreenPeace France, 13, Rue d'Enghien, Quartier de la Porte-Saint-Denis, Paris 10e Arrondissement, Paris, Île-de-France, France métropolitaine, 75010, France","(48.8717372, 2.3521223, 0.0)",48.8717372,2.3521223,0.0
248,groupe urd,1654,4.633053221288516,environment,,la font des marins 26170 plaisians france,,,,,,,,,,,
249,generations futures,28249,79.12885154061625,environment,,179 rue la fayette 75010 paris france,,,,,,,"179, Rue La Fayette, Quartier de l'Hôpital Saint-Louis, Paris 10e Arrondissement, Paris, Île-de-France, France métropolitaine, 75010, France","(48.8801367, 2.3598275, 0.0)",48.8801367,2.3598275,0.0
250,handicap international  humanity  inclusion,214969,602.1540616246499,human rights democracy and governance,,138 avenue des frères lumière 69008 lyon  france,,,,,,,"138, Avenue des Frères Lumière, Monplaisir, Lyon 8e Arrondissement, Lyon, Métropole de Lyon, Circonscription départementale du Rhône, Auvergne-Rhône-Alpes, France métropolitaine, 69008, France","(45.7432443, 4.8705184, 0.0)",45.7432443,4.8705184,0.0
251,helio international,224,0.6274509803921569,economic recovery and development,,75116 paris france,,,,,,,"Paris, Île-de-France, France métropolitaine, 75116, France","(48.868270471326156, 2.284165445085393, 0.0)",48.868270471326156,2.284165445085393,0.0
252,hera,1233,3.453781512605042,human rights democracy and governance,,15 rue beranger paris 75003 france,,,,,,,"15, Rue Béranger, Quartier des Enfants-Rouges, Paris 3e Arrondissement, Paris, Île-de-France, France métropolitaine, 75003, France","(48.8660891, 2.3636176, 0.0)",48.8660891,2.3636176,0.0
253,hes lgbti,2397,6.714285714285714,human rights democracy and governance,,20 rue edouard pailleron 75019 paris france,,,,,,,"20, Rue Édouard Pailleron, Quartier du Combat, Paris 19e Arrondissement, Paris, Île-de-France, France métropolitaine, 75019, France","(48.8804479, 2.3766239, 0.0)",48.8804479,2.3766239,0.0
254,human dignity,1635,4.579831932773109,human rights democracy and governance,,68 rue joseph de maistre 75018 paris france,,,,,,,"68, Rue Joseph de Maistre, Quartier des Grandes-Carrières, Paris 18e Arrondissement, Paris, Île-de-France, France métropolitaine, 75018, France","(48.890527, 2.3312658, 0.0)",48.890527,2.3312658,0.0
255,human rights watch en francais,131960,369.6358543417367,human rights democracy and governance,,142 rue montmartre 75002 paris france,,,,,,,"142, Rue Montmartre, Quartier du Mail, Paris 2e Arrondissement, Paris, Île-de-France, France métropolitaine, 75002, France","(48.8688839, 2.3433978, 0.0)",48.8688839,2.3433978,0.0
256,icc arbitration,11272,31.574229691876752,human rights democracy and governance,,3343 av du président wilson 75116 paris france,,,,,,,"Avenue du Président Wilson, Quartier de Chaillot, Paris 16e Arrondissement, Paris, Île-de-France, France métropolitaine, 75116, France","(48.864567, 2.2931936, 0.0)",48.864567,2.2931936,0.0
257,idate digiworld,1231,3.4481792717086837,education,,52 rue montmartre 75002 paris france,,,,,,,"52, Rue Montmartre, Quartier du Mail, Paris 2e Arrondissement, Paris, Île-de-France, France métropolitaine, 75002, France","(48.8652795, 2.3450112, 0.0)",48.8652795,2.3450112,0.0
258,institut europeen de cooperation et de developpement,6451,18.07002801120448,education,,20 rue de dantzig 75015 paris france,,,,,,,"20, Rue de Dantzig, Quartier Saint-Lambert, Paris 15e Arrondissement, Paris, Île-de-France, France métropolitaine, 75015, France","(48.8343618, 2.2993947, 0.0)",48.8343618,2.2993947,0.0
259,institut francais des relations internationales,107676,301.61344537815125,education,,27 rue de la procession 75015 paris france,,,,,,,"27, Rue de la Procession, Quartier Necker, Paris 15e Arrondissement, Paris, Île-de-France, France métropolitaine, 75015, France","(48.8383265, 2.3071478, 0.0)",48.8383265,2.3071478,0.0
260,iheal creda,5098,14.280112044817928,education,,5 cours des humanités 93322 aubervilliers france,,,,,,,"Recherche Sud (EHESS, Paris 1, Paris 3, Paris 13, IDA), 5, Cours des Humanités, Landy-Plaine - Marcreus - Pressensé, Aubervilliers, Saint-Denis, Seine-Saint-Denis, Île-de-France, France métropolitaine, 93300, France","(48.9085199, 2.3661494126966396, 0.0)",48.9085199,2.3661494126966396,0.0
261,ilci paris,863,2.4173669467787113,education,,4 rue véronèse 75013 paris france,,,,,,,"4, Rue Véronèse, Quartier de la Salpêtrière, Paris 13e Arrondissement, Paris, Île-de-France, France métropolitaine, 75013, France","(48.8341258, 2.3552784, 0.0)",48.8341258,2.3552784,0.0
262,inalco  langues o',21071,59.022408963585434,education,,2 rue de lille 75007 paris france,,,,,,,"2, Rue de Lille, Quartier Saint-Thomas-d'Aquin, Paris 7e Arrondissement, Paris, Île-de-France, France métropolitaine, 75007, France","(48.8577354, 2.3325384, 0.0)",48.8577354,2.3325384,0.0
263,initiative developpement poitiers,10629,29.77310924369748,economic recovery and development,,29 rue ladmirault 86000 poitiers france,,,,,,,"Rue Ladmirault, Les Montgorges, Poitiers, Vienne, Nouvelle-Aquitaine, France métropolitaine, 86000, France","(46.5840945, 0.3234629, 0.0)",46.5840945,0.3234629,0.0
264,institut d'etudes slaves,935,2.619047619047619,education,,9 rue michelet 75006 paris france,,,,,,,"9, Rue Michelet, Quartier de l'Odéon, Paris 6e Arrondissement, Paris, Île-de-France, France métropolitaine, 75006, France","(48.8424843, 2.3354027, 0.0)",48.8424843,2.3354027,0.0
265,institut de la protection sociale europeenne,62,0.17366946778711484,education,,92 bd de magenta 75010 paris france,,,,,,,"Philippine Mini Mart, 92, Boulevard de Magenta, Quartier Saint-Vincent-de-Paul, Paris 10e Arrondissement, Paris, Île-de-France, France métropolitaine, 75010, France","(48.8771713, 2.3555504, 0.0)",48.8771713,2.3555504,0.0
266,institut de medecine et d'epidemoiologie appliquee,16,0.04481792717086835,health,,46 rue henri huchard 75018 paris france,,,,,,,"Bichât, 46, Rue Henri Huchard, Quartier des Grandes-Carrières, Paris 18e Arrondissement, Paris, Île-de-France, France métropolitaine, 75018, France","(48.89953965, 2.3325203670032293, 0.0)",48.89953965,2.3325203670032293,0.0
267,institut de recherche our le developpement,26195,73.37535014005603,education,,44 bd de dunkerque 13002 marseille france,,,,,,,"Boulevard de Dunkerque, La Joliette, 2e Arrondissement, Marseille, Bouches-du-Rhône, Provence-Alpes-Côte d'Azur, France métropolitaine, 13002, France","(43.3048375, 5.36708, 0.0)",43.3048375,5.36708,0.0
268,institut du monde arabe,182622,511.546218487395,education,,1 rue des fossés saintbernard 75005 paris france,,,,,,,,,,,
269,institut international des droits de l'homme,14027,39.29131652661064,human rights democracy and governance,,2 all rené cassin 67000 strasbourg france,,,,,,,"2, Allée René Cassin, Quartier des XV, Strasbourg, Bas-Rhin, Grand Est, France métropolitaine, 67081, France","(48.5973809, 7.7753123, 0.0)",48.5973809,7.7753123,0.0
270,institute for economic studies  europe,6334,17.742296918767508,education,,35 av macmahon 75017 paris france,,,,,,,,,,,
271,international chamber of commerce,32334,90.57142857142857,economic recovery and development,,3343 av du président wilson 75116 paris france,,,,,,,"Avenue du Président Wilson, Quartier de Chaillot, Paris 16e Arrondissement, Paris, Île-de-France, France métropolitaine, 75116, France","(48.864567, 2.2931936, 0.0)",48.864567,2.2931936,0.0
272,international council of women,8161,22.859943977591037,human rights democracy and governance,,13 rue caumartin 75009 paris france,,,,,,,"13, Rue de Caumartin, Quartier de la Chaussée-d'Antin, Paris 9e Arrondissement, Paris, Île-de-France, France métropolitaine, 75009, France","(48.8710926, 2.3280361, 0.0)",48.8710926,2.3280361,0.0
273,international federation of catholic universities,559,1.5658263305322129,education,,9 21 rue d'assas 75006 paris france,,,,,,,"Rue d'Assas, Quartier Notre-Dame-des-Champs, Paris 6e Arrondissement, Paris, Île-de-France, France métropolitaine, 75006, France","(48.8456085, 2.3316929, 0.0)",48.8456085,2.3316929,0.0
274,international institute for research  human development,573,1.6050420168067228,education,,2 rue jean engling 1466 luxembourg,,,,,,,"2, Rue Jean Engling, Dommeldange, Luxembourg, Canton Luxembourg, 1466, Lëtzebuerg","(49.6389604, 6.1450645, 0.0)",49.6389604,6.1450645,0.0
275,international science council,18604,52.11204481792717,education,,5 rue auguste vacquerie 75116 paris france,,,,,,,"5, Rue Auguste Vacquerie, Quartier de Chaillot, Paris 16e Arrondissement, Paris, Île-de-France, France métropolitaine, 75116, France","(48.8708187, 2.2963325, 0.0)",48.8708187,2.2963325,0.0
276,international union again tuberculosis and lung disease,13264,37.15406162464986,health,,2 rue jean lantier 75001 paris france,,,,,,,"2, Rue Jean Lantier, Quartier Saint-Germain-l'Auxerrois, Paris 1er Arrondissement, Paris, Île-de-France, France métropolitaine, 75001, France","(48.8584336, 2.3469548, 0.0)",48.8584336,2.3469548,0.0
277,investisseurs et partenaires,17701,49.582633053221286,economic recovery and development,,9 rue notre dame des victoires 75002 paris france,,,,,,,"9, Rue Notre-Dame-des-Victoires, Quartier Vivienne, Paris 2e Arrondissement, Paris, Île-de-France, France métropolitaine, 75002, France","(48.8677528, 2.3415223, 0.0)",48.8677528,2.3415223,0.0
278,institut de relations internationales et strategiques,66235,185.53221288515405,education,,2 bis rue mercœur 75011 paris france,,,,,,,"L'Éclat de Verre, 2 bis, Rue Mercœur, Quartier de la Roquette, Paris 11e Arrondissement, Paris, Île-de-France, France métropolitaine, 75011, France","(48.8566748, 2.3827298, 0.0)",48.8566748,2.3827298,0.0
279,jeux del la francophonie,16980,47.563025210084035,education,,1921 avenue bosquet 75007 paris,,,,,,,"Avenue Bosquet, Quartier du Gros-Caillou, Paris 7e Arrondissement, Paris, Île-de-France, France métropolitaine, 75007, France","(48.8555187, 2.3052487, 0.0)",48.8555187,2.3052487,0.0
280,kinome,1398,3.9159663865546217,environment,,45 bis av de la belle gabrielle nogent sur marne france,,,,,,,"Avenue de la Belle Gabrielle, Le Bois - Porte de Nogent, Nogent-sur-Marne, Val-de-Marne, Île-de-France, France métropolitaine, 94130, France","(48.8323439, 2.4663373, 0.0)",48.8323439,2.4663373,0.0
282,krousar thmey foundation,12248,34.30812324929972,protection,,47 rue greneta 75002 paris france,,,,,,,"Rue Greneta, Quartier de Bonne-Nouvelle, Paris 2e Arrondissement, Paris, Île-de-France, France métropolitaine, 75002, France","(48.8651327, 2.3503553, 0.0)",48.8651327,2.3503553,0.0
283,l'appel,1022,2.8627450980392157,humanitarian,,89 av de flandre 75019 paris france,,,,,,,"89, Avenue de Flandre, Quartier de la Villette, Paris 19e Arrondissement, Paris, Île-de-France, France métropolitaine, 75019, France","(48.88959, 2.37495, 0.0)",48.88959,2.37495,0.0
284,la balle aux prisonniers,6120,17.142857142857142,human rights democracy and governance,,8 rue carnot 92300 levalloisperret france,,,,,,,,,,,
285,la conferederation europeenne du lin et du chanvre,13455,37.6890756302521,environment,,15 rue du louvre 75001 paris france,,,,,,,"Rue du Louvre, Quartier Les Halles, Paris 1er Arrondissement, Paris, Île-de-France, France métropolitaine, 75001, France","(48.862635, 2.3416909, 0.0)",48.862635,2.3416909,0.0
286,la dcc  delegation catholique pour la cooperation,6775,18.977591036414566,economic recovery and development,,106 rue du bac 75007 paris france,,,,,,,"Délégation Catholique pour la Coopération, 106, Rue du Bac, Quartier Saint-Thomas-d'Aquin, Paris 7e Arrondissement, Paris, Île-de-France, France métropolitaine, 75007, France","(48.8534158, 2.3236654, 0.0)",48.8534158,2.3236654,0.0
287,la guilde europeenne du raid,8657,24.249299719887954,economic recovery and development,,7 rue pasquier 75008 paris france,,,,,,,"7, Rue Pasquier, Quartier de la Madeleine, Paris 8e Arrondissement, Paris, Île-de-France, France métropolitaine, 75008, France","(48.8718664, 2.3231406, 0.0)",48.8718664,2.3231406,0.0
288,la securites sociale des artistes auteurs,8330,23.333333333333332,protection,,60 rue du faubourg poissonnière 75010 paris france,,,,,,,"Café Michalak, 60, Rue du Faubourg Poissonnière, Quartier de Rochechouart, Paris 10e Arrondissement, Paris, Île-de-France, France métropolitaine, 75010, France","(48.8753387, 2.3482731, 0.0)",48.8753387,2.3482731,0.0
289,les amis de la terre france,56135,157.2408963585434,protection,,12 rue ganneron 75018 paris,,,,,,,"12, Rue Ganneron, Quartier des Grandes-Carrières, Paris 18e Arrondissement, Paris, Île-de-France, France métropolitaine, 75018, France","(48.8862979, 2.3271789, 0.0)",48.8862979,2.3271789,0.0
290,les cdf  les chirurgiensdentistes de france,9780,27.394957983193276,health,,54 rue ampère 75017 paris france,,,,,,,"54, Rue Ampère, Quartier de la Plaine-de-Monceau, Paris 17e Arrondissement, Paris, Île-de-France, France métropolitaine, 75017, France","(48.8853924, 2.3004762, 0.0)",48.8853924,2.3004762,0.0
291,les sauveteurs en mer  snsm,164982,462.1344537815126,environment,,8 cité d'antin 75009 paris france,,,,,,,"8, Cité d'Antin, Quartier de la Chaussée-d'Antin, Paris 9e Arrondissement, Paris, Île-de-France, France métropolitaine, 75009, France","(48.8735722, 2.334336, 0.0)",48.8735722,2.334336,0.0
292,livelihoods,4485,12.563025210084033,environment,,48 rue de la victoire 48 50 75011 paris france,,,,,,,,,,,
293,magic hospital,367,1.0280112044817926,health,,142 ave parmentier 75011 paris france,,,,,,,,,,,
294,maison familiales rurales mfr,13534,37.910364145658264,education,,58 rue notre dame de lorette 75009 paris france,,,,,,,"58, Rue Notre-Dame-de-Lorette, Quartier Saint-Georges, Paris 9e Arrondissement, Paris, Île-de-France, France métropolitaine, 75009, France","(48.8799925, 2.3357441, 0.0)",48.8799925,2.3357441,0.0
295,makesense,107195,300.26610644257704,environment ,,11 rue biscornet 75012 paris france,,,,,,,"11, Rue Biscornet, Quartier des Quinze-Vingts, Paris 12e Arrondissement, Paris, Île-de-France, France métropolitaine, 75012, France","(48.8505086, 2.3696736, 0.0)",48.8505086,2.3696736,0.0
296,mouvement pour une alternative nonviolente,2694,7.546218487394958,human rights democracy and governance,,187 mnt de choulans 69005 lyon france,,,,,,,,,,,
297,medair,31645,88.64145658263305,health,,18 rue de gravelle 75012 paris france,,,,,,,"18, Rue de Gravelle, Quartier de Picpus, Paris 12e Arrondissement, Paris, Île-de-France, France métropolitaine, 75012, France","(48.8365505, 2.3983584, 0.0)",48.8365505,2.3983584,0.0
298,mercy ships france,3324,9.3109243697479,health,,129 rue servient 69326 lyon cedex 03 france,,,,,,,,,,,
299,mrap,3304,9.254901960784315,human rights democracy and governance,,43 boulevard magenta 75010 paris,,,,,,,"43, Boulevard de Magenta, Quartier de la Porte-Saint-Martin, Paris 10e Arrondissement, Paris, Île-de-France, France métropolitaine, 75010, France","(48.8726807, 2.3590523, 0.0)",48.8726807,2.3590523,0.0
301,noe,15942,44.65546218487395,environment,,47 rue clisson 75013 paris france,,,,,,,"47, Rue Clisson, Quartier de la Gare, Paris 13e Arrondissement, Paris, Île-de-France, France métropolitaine, 75013, France","(48.8314834, 2.3666422, 0.0)",48.8314834,2.3666422,0.0
302,negawatt,11213,31.408963585434172,environment,,valence cedex 9 avenue de la gare alixan france,,,,,,,,,,,
303,oafrica,6865,19.2296918767507,protection ,,29 rue vineuse 75116 paris,,,,,,,"29, Rue Vineuse, Quartier de la Muette, Paris 16e Arrondissement, Paris, Île-de-France, France métropolitaine, 75116, France","(48.8602421, 2.2844166, 0.0)",48.8602421,2.2844166,0.0
304,observatoire pharos,1010,2.8291316526610646,education ,,33 rue godot de mauroy 75009 paris france,,,,,,,"33, Rue Godot de Mauroy, Quartier de la Chaussée-d'Antin, Paris 9e Arrondissement, Paris, Île-de-France, France métropolitaine, 75009, France","(48.8721554, 2.327303, 0.0)",48.8721554,2.327303,0.0
305,observatoire zététique,13017,36.46218487394958,education,,4 avenue du vercors fontaine 38600 france,,,,,,,"4, Avenue du Vercors, Quartier Bastille, Fontaine, Grenoble, Isère, Auvergne-Rhône-Alpes, France métropolitaine, 38600, France","(45.1925303, 5.7000952, 0.0)",45.1925303,5.7000952,0.0
306,office international de l'eau,2655,7.436974789915967,environment,,pl sophie laffitte 06560 valbonne france,,,,,,,"Place Sophie Laffitte, Sophia Antipolis, Valbonne, Grasse, Alpes-Maritimes, Provence-Alpes-Côte d'Azur, France métropolitaine, 06560, France","(43.615091899999996, 7.054790651239227, 0.0)",43.615091899999996,7.054790651239227,0.0
307,one france,133500,373.9495798319328,human rights democracy and governance,,22 rue chapon 75003 paris,,,,,,,"22, Rue Chapon, Quartier Sainte-Avoye, Paris 3e Arrondissement, Paris, Île-de-France, France métropolitaine, 75003, France","(48.8635201, 2.3558053, 0.0)",48.8635201,2.3558053,0.0
308,ong sante diabete,5504,15.417366946778712,health,,17 av malherbe 38100 grenoble france,,,,,,,"17, Avenue Malherbe, Secteur 5, Grenoble, Isère, Auvergne-Rhône-Alpes, France métropolitaine, 38100, France","(45.169467850000004, 5.736439229143644, 0.0)",45.169467850000004,5.736439229143644,0.0
309,organisation internationale de la francophone,303007,848.7591036414566,education,,921 avenue bosquet 75007 paris france,,,,,,,"Avenue Bosquet, Quartier du Gros-Caillou, Paris 7e Arrondissement, Paris, Île-de-France, France métropolitaine, 75007, France","(48.8555187, 2.3052487, 0.0)",48.8555187,2.3052487,0.0
310,osez le feminisme!,125608,351.84313725490193,education,,22 rue deparcieux 75014 paris france,,,,,,,"22, Rue Deparcieux, Quartier de Plaisance, Paris 14e Arrondissement, Paris, Île-de-France, France métropolitaine, 75014, France","(48.8355969, 2.3258466, 0.0)",48.8355969,2.3258466,0.0
312,paris habitat,3369,9.436974789915967,economic recovery and development,,21 rue claude bernard 75005 paris france,,,,,,,"21, Rue Claude Bernard, Quartier du Val-de-Grâce, Paris 5e Arrondissement, Paris, Île-de-France, France métropolitaine, 75005, France","(48.8391929, 2.3485364, 0.0)",48.8391929,2.3485364,0.0
313,paris institute of political studies sciences po,76,0.21288515406162464,education,,27 rue saintguillaume 75007 paris france,,,,,,,,,,,
314,parliamentary network on the world bank and imf,210,0.5882352941176471,education ,,66 avenue d'iéna 75116 paris france,,,,,,,"66, Avenue d'Iéna, Quartier de Chaillot, Paris 16e Arrondissement, Paris, Île-de-France, France métropolitaine, 75116, France","(48.8692381, 2.2959755, 0.0)",48.8692381,2.2959755,0.0
315,partage,18103,50.70868347338936,human rights democracy and governance,,340 rue vivenel bp 70311 60203 compiègne cedex  france,,,,,,,,,,,
316,passerelles numeriques,13532,37.904761904761905,education,,31 rue de l'ourcq 75019 paris france,,,,,,,"Passerelles numériques, 31, Rue de l'Ourcq, Quartier de la Villette, Paris 19e Arrondissement, Paris, Île-de-France, France métropolitaine, 75019, France","(48.8887746, 2.3835009, 0.0)",48.8887746,2.3835009,0.0
317,peta france,120396,337.2436974789916,protection ,,bp 90316 75464 paris cedex 10 france,,,,,,,,,,,
319,play international,7929,22.210084033613445,education,,173 rue de vaugirard 75015 paris france,,,,,,,"173, Rue de Vaugirard, Quartier Saint-Lambert, Paris 15e Arrondissement, Paris, Île-de-France, France métropolitaine, 75015, France","(48.843267, 2.3139342, 0.0)",48.843267,2.3139342,0.0
320,premiere urgence internationale,96124,269.2549019607843,humanitarian ,,2 rue auguste thomas 92600 asnièressur seine france,,,,,,,,,,,
322,reseau euromed france,4916,13.7703081232493,human rights democracy and governance,,80 rue de paris 93100 paris france,,,,,,,"80, Rue de Paris, Faubourg de Paris, Valenciennes, Nord, Hauts-de-France, France métropolitaine, 59300, France","(50.3588167, 3.5192041, 0.0)",50.3588167,3.5192041,0.0
323,reporters sans frontieres,268278,751.4789915966387,human rights democracy and governance,,47 rue vivienne 75002 paris,,,,,,,"Aprentiv'Conseil, 47, Rue Vivienne, Quartier du Palais Royal, Paris 1er Arrondissement, Paris, Île-de-France, France métropolitaine, 75002, France","(48.8709494, 2.3410518, 0.0)",48.8709494,2.3410518,0.0
324,ritimo,6196,17.355742296918766,education,,21 ter rue voltaire 75011,,,,,,,"Rue Voltaire, Quartier Sainte-Marguerite, Paris 11e Arrondissement, Paris, Île-de-France, France métropolitaine, 75011, France","(48.8524844, 2.3913929, 0.0)",48.8524844,2.3913929,0.0
325,sahara conversation fund,71593,200.5406162464986,environment,,3 bis grandplace 77600 bussy saint georges france,,,,,,,,,,,
326,sante sud,3405,9.53781512605042,health,,27 rue du faubourg saint jacques paris france 75014,,,,,,,"Pépinière d'Entreprises Paris Santé Cochin, 27, Rue du Faubourg Saint-Jacques, Quartier du Montparnasse, Paris 14e Arrondissement, Paris, Île-de-France, France métropolitaine, 75014, France","(48.8374824, 2.341553830389646, 0.0)",48.8374824,2.341553830389646,0.0
327,sciences citoyennes,3642,10.201680672268907,education,,38 rue st sabin 75011 paris france,,,,,,,"Fondation Charles-Léopold Mayer pour le Progrès de l'Homme, 38, Rue Saint-Sabin, Quartier de la Roquette, Paris 11e Arrondissement, Paris, Île-de-France, France métropolitaine, 75011, France","(48.8578781, 2.3694829, 0.0)",48.8578781,2.3694829,0.0
328,secours islamique france,456353,1278.2997198879552,education,,10 rue galvani 91300 massy france,,,,,,,"10, Rue Galvani, Atlantis, Massy, Palaiseau, Essonne, Île-de-France, France métropolitaine, 91300, France","(48.7216601, 2.2720023, 0.0)",48.7216601,2.2720023,0.0
330,societe entomologique de france,1019,2.854341736694678,education,,45 rue buffon 75005 paris france,,,,,,,"45, Rue Buffon, Quartier du Jardin des Plantes, Paris 5e Arrondissement, Paris, Île-de-France, France métropolitaine, 75005, France","(48.8419461, 2.3591237, 0.0)",48.8419461,2.3591237,0.0
331,soeurs auxiliatrices de la charite,100,0.2801120448179272,education,,25 rue gandon 75013 paris france,,,,,,,"25, Rue Gandon, Quartier de la Maison-Blanche, Paris 13e Arrondissement, Paris, Île-de-France, France métropolitaine, 75013, France","(48.8208119, 2.3611362, 0.0)",48.8208119,2.3611362,0.0
332,solidarites international,45817,128.33893557422968,humanitarian ,,89 rue de paris 92110 clichy la garenne,,,,,,,"89, Rue de Paris, Clichy-la-Garenne, Arrondissement de Nanterre, Hauts-de-Seine, Île-de-France, France métropolitaine, 92110, France","(48.901092, 2.303502, 0.0)",48.901092,2.303502,0.0
333,sos homophobie,46497,130.2436974789916,human rights democracy and governance,,14 rue abel 75012 paris france,,,,,,,"Le Pop-up du Label, 14, Rue Abel, Quartier des Quinze-Vingts, Paris 12e Arrondissement, Paris, Île-de-France, France métropolitaine, 75012, France","(48.8475082, 2.375638, 0.0)",48.8475082,2.375638,0.0
334,strass  syndicat du travail sexuel,8704,24.38095238095238,human rights democracy and governance,,39 bis bd barbès 75018 paris france,,,,,,,"Boulevard Barbès, Quartier de Clignancourt, Paris 18e Arrondissement, Paris, Île-de-France, France métropolitaine, 75018, France","(48.8894386, 2.3494659, 0.0)",48.8894386,2.3494659,0.0
335,survie,14166,39.680672268907564,human rights democracy and governance,,21ter rue voltaire 75011 paris france,,,,,,,"Rue Voltaire, Quartier Sainte-Marguerite, Paris 11e Arrondissement, Paris, Île-de-France, France métropolitaine, 75011, France","(48.8524844, 2.3913929, 0.0)",48.8524844,2.3913929,0.0
337,syrian nonviolence movement,4771,13.364145658263306,human rights democracy and governance,,rue de l'espérance 95800 cergy france,,,,,,,"Rue de l'Espérance, La Pointe du Hazay, Cergy le Haut, Cergy, Pontoise, Val-d'Oise, Île-de-France, France métropolitaine, 95800, France","(49.0480209, 2.0129159, 0.0)",49.0480209,2.0129159,0.0
339,institute of democracy and cooperation paris,480,1.3445378151260505,education ,,63 bis rue de varenne 75007 paris france,,,,,,,"Rue de Varenne, Faubourg Saint-Germain, Paris 7e Arrondissement, Paris, Île-de-France, France métropolitaine, 75007, France","(48.8554346, 2.3179914, 0.0)",48.8554346,2.3179914,0.0
340,the womens worldwide web,43730,122.49299719887955,human rights democracy and governance,,77 rue de turbigo 75003 paris france,33 01 75 50 52 53,,,,,,"Sushizo, 77, Rue de Turbigo, Quartier des Arts-et-Métiers, Paris 3e Arrondissement, Paris, Île-de-France, France métropolitaine, 75003, France","(48.8665755, 2.3603554, 0.0)",48.8665755,2.3603554,0.0
341,ticket for change,31232,87.48459383753502,education ,,98 rue d'aboukir 75002 paris france,,,,,,,"98, Rue d'Aboukir, Quartier du Mail, Paris 2e Arrondissement, Paris, Île-de-France, France métropolitaine, 75002, France","(48.8682568, 2.348798, 0.0)",48.8682568,2.348798,0.0
342,telecom sans frontieres,6362,17.820728291316527,humanitarian ,,19 rue jean baptiste carreau 64000 pau france,,,,,,,"Telecom sans frontières, 19, Rue Jean-Baptiste Carreau, Centre Ville, Pau, Pyrénées-Atlantiques, Nouvelle-Aquitaine, France métropolitaine, 64000, France","(43.2977523, -0.3732744, 0.0)",43.2977523,-0.3732744,0.0
343,tetraktys ong,1512,4.235294117647059,economic recovery and development,,5 rue federico garcia lorca 38000 grenoble france,,,,,,,,,,,
344,tournons la page,11303,31.66106442577031,human rights democracy and governance,,14 pass dubail 75010 paris france,,,,,,,"Centre de recherche et d'Information pour le Développement, 14, Passage Dubail, Quartier de la Porte-Saint-Martin, Paris 10e Arrondissement, Paris, Île-de-France, France métropolitaine, 75010, France","(48.8737094, 2.359693, 0.0)",48.8737094,2.359693,0.0
345,triangle generation humanitaire,8457,23.689075630252102,economic recovery and development,,1 rue de montribloud 69009 lyon france,,,,,,,"1, Rue de Montribloud, Gorge de Loup, Lyon 9e Arrondissement, Tassin-la-Demi-Lune, Lyon, Métropole de Lyon, Circonscription départementale du Rhône, Auvergne-Rhône-Alpes, France métropolitaine, 69009, France","(45.7729805, 4.7927762, 0.0)",45.7729805,4.7927762,0.0
346,union des avocats europeens,486,1.361344537815126,human rights democracy and governance,,25 rue du jour  75001 paris france,,,,,,,"Musée du Barreau, 25, Rue du Jour, Quartier Les Halles, Paris 1er Arrondissement, Paris, Île-de-France, France métropolitaine, 75001, France","(48.8640279, 2.3450171, 0.0)",48.8640279,2.3450171,0.0
347,union des femmes reunionnaises,1381,3.8683473389355743,human rights democracy and governance,,117 rue du maréchal leclerc 97400 saintdenis,,,,,,,,,,,
348,un coeur pour la paix,2457,6.882352941176471,health ,,48 rue cortambert 75116 paris france,,,,,,,"48, Rue Cortambert, Quartier de la Muette, Paris 16e Arrondissement, Paris, Île-de-France, France métropolitaine, 75116, France","(48.8606048, 2.2784549, 0.0)",48.8606048,2.2784549,0.0
349,unifrance,49582,138.88515406162466,education ,,13 rue henner 75009 paris france,,,,,,,"13, Rue Henner, Quartier Saint-Georges, Paris 9e Arrondissement, Paris, Île-de-France, France métropolitaine, 75009, France","(48.8806525, 2.3331228, 0.0)",48.8806525,2.3331228,0.0
350,union del la presse francophone,4205,11.778711484593838,education ,,112 rue reaumur 75080 paris cedex 02 france,,,,,,,,,,,
351,union rationaliste,105,0.29411764705882354,education ,,32 rue pannard 28190 courville sur eure france,,,,,,,"Rue Pannard, Courville-sur-Eure, Chartres, Eure-et-Loir, Centre-Val de Loire, France métropolitaine, 28190, France","(48.4484371, 1.2396591, 0.0)",48.4484371,1.2396591,0.0
353,women and health alliance waha,9790,27.42296918767507,health,,160 bis rue du temple 75003 paris france,,,,,,,"Rue du Temple, Quartier des Arts-et-Métiers, Paris 3e Arrondissement, Paris, Île-de-France, France métropolitaine, 75003, France","(48.8668175, 2.3620471, 0.0)",48.8668175,2.3620471,0.0
354,wildlife angel,28093,78.69187675070027,environment,,1a pl des orphelins 67000 strasbourg france,,,,,,,"Place des Orphelins, Krutenau, Strasbourg, Bas-Rhin, Grand Est, France métropolitaine, France","(48.5788934, 7.7543361119357375, 0.0)",48.5788934,7.7543361119357375,0.0
355,women now for development,16693,46.75910364145658,human rights democracy and governance,,fondation des femmes 9 rue de vaugirard 75006 paris france,,,,,,,,,,,
357,wwf france,919905,2576.764705882353,environment,,3537 rue baudin 93310 le pré saint gervais france,,,,,,,"Rue Baudin, Villa du Pré, Le Pré-Saint-Gervais, Bobigny, Seine-Saint-Denis, Île-de-France, France métropolitaine, 93310, France","(48.8867945, 2.4052046, 0.0)",48.8867945,2.4052046,0.0
